{
  "version": 0.6,
  "generator": "Overpass API 0.7.62.7 375dc00a",
  "osm3s": {
    "timestamp_osm_base": "2025-08-10T12:54:54Z",
    "copyright": "The data included in this document is from www.openstreetmap.org. The data is made available under ODbL."
  },
  "elements": [
    {
      "type": "node",
      "id": 49180693,
      "lat": 52.913845,
      "lon": 8.426856,
      "tags": {
        "amenity": "restaurant",
        "name": "Rasthof Wildeshausen Süd"
      }
    },
    {
      "type": "node",
      "id": 49183701,
      "lat": 52.9152451,
      "lon": 8.4222126,
      "tags": {
        "addr:city": "Dötlingen",
        "addr:country": "DE",
        "addr:housenumber": "10",
        "addr:postcode": "27801",
        "addr:street": "Hunteweg",
        "amenity": "fast_food",
        "brand": "Burger King",
        "brand:wikidata": "Q177054",
        "brand:wikipedia": "en:Burger King",
        "cuisine": "burger",
        "name": "Burger King",
        "takeaway": "yes",
        "toilets:wheelchair": "yes",
        "wheelchair": "no"
      }
    },
    {
      "type": "node",
      "id": 76477780,
      "lat": 52.8991663,
      "lon": 8.4436819,
      "tags": {
        "addr:city": "Wildeshausen",
        "addr:country": "DE",
        "addr:housenumber": "10",
        "addr:postcode": "27793",
        "addr:street": "Huntetor",
        "amenity": "fuel",
        "brand": "HEM",
        "brand:wikidata": "Q109930239",
        "brand:wikipedia": "de:Deutsche Tamoil",
        "compressed_air": "yes",
        "fuel:diesel": "yes",
        "fuel:e10": "yes",
        "fuel:octane_95": "yes",
        "fuel:octane_98": "yes",
        "name": "HEM Tankstelle",
        "operator": "Axel Bronnenkant"
      }
    },
    {
      "type": "node",
      "id": 76477929,
      "lat": 52.9057049,
      "lon": 8.4428686,
      "tags": {
        "amenity": "fuel",
        "compressed_air": "yes",
        "fuel:cng": "yes",
        "fuel:lpg": "yes",
        "name": "Raiffeisen-Tankstelle",
        "opening_hours": "Mo-Fr 06:00-20:00; Sa 07:00-20:00; PH,Su 08:00-20:00",
        "source": "survey"
      }
    },
    {
      "type": "node",
      "id": 76477961,
      "lat": 52.8879452,
      "lon": 8.4184326,
      "tags": {
        "addr:city": "Wildeshausen",
        "addr:country": "DE",
        "addr:housenumber": "28",
        "addr:postcode": "27793",
        "addr:street": "Westring",
        "amenity": "fuel",
        "brand": "HEM",
        "brand:wikidata": "Q109930239",
        "car_wash": "yes",
        "fuel:HGV_diesel": "yes",
        "fuel:diesel": "yes",
        "fuel:e10": "yes",
        "fuel:lpg": "yes",
        "fuel:octane_95": "yes",
        "name": "HEM Wildeshausen",
        "opening_hours": "Mo-Fr 05:00-22:00,Sa 06:00-22:00,Su 07:00-22:00,PH 07:00-22:00",
        "payment:american_express": "yes",
        "payment:cash": "yes",
        "payment:girocard": "yes",
        "payment:maestro": "yes",
        "payment:mastercard": "yes",
        "payment:visa": "yes",
        "phone": "+49 4431 918152",
        "website": "https://www.hem-tankstelle.de/partner/HEM/Wildeshausen/Westring-28",
        "wheelchair": "yes"
      }
    },
    {
      "type": "node",
      "id": 78035702,
      "lat": 52.8920127,
      "lon": 8.4149393,
      "tags": {
        "addr:city": "Wildeshausen",
        "addr:country": "DE",
        "addr:housenumber": "16a",
        "addr:postcode": "27793",
        "addr:street": "Westring",
        "amenity": "fuel",
        "brand": "Westfalen",
        "brand:wikidata": "Q1411209",
        "brand:wikipedia": "en:Westfalen AG",
        "car_wash": "yes",
        "compressed_air": "yes",
        "fuel:diesel": "yes",
        "fuel:gas": "yes",
        "fuel:super": "yes",
        "name": "Westfalen Tankstelle",
        "opening_hours": "Mo-Fr 05:30-22:00, Sa 07:00-22:00, Su 08:00-22:00",
        "operator": "Patrik Büger",
        "payment:american_express": "yes",
        "payment:avia_card": "yes",
        "payment:bp_plus": "yes",
        "payment:cash": "yes",
        "payment:debit_cards": "yes",
        "payment:diners_club": "yes",
        "payment:dkv": "yes",
        "payment:girocard": "yes",
        "payment:logpay": "yes",
        "payment:mastercard": "yes",
        "payment:omv_card": "yes",
        "payment:total_card": "yes",
        "payment:uta": "yes",
        "payment:v_pay": "yes",
        "payment:visa": "yes",
        "payment:westfalen_service_card": "yes",
        "website": "https://www.westfalen-ag.de/privatkunden/tankstellen-und-mobilitaet/tankstellenfinder/stations/detail/westfalen-tankstelle-patrick-buerger.html"
      }
    },
    {
      "type": "node",
      "id": 129857610,
      "lat": 52.9094066,
      "lon": 8.4393531,
      "tags": {
        "contact:email": "info@gut-altona.de",
        "contact:phone": "+49 4431 9500",
        "contact:website": "https://www.gut-altona.de",
        "internet_access": "wlan",
        "name": "Gut Altona Hotel Restaurant",
        "operator": "Heiner Ahrmann",
        "tourism": "hotel",
        "wheelchair": "limited"
      }
    },
    {
      "type": "node",
      "id": 129857992,
      "lat": 52.9014875,
      "lon": 8.4429217,
      "tags": {
        "addr:city": "Wildeshausen",
        "addr:country": "DE",
        "addr:housenumber": "3",
        "addr:postcode": "27793",
        "addr:street": "Im Hagen",
        "email": "info@wildeshauser-hof.de",
        "fax": "+49 (0) 44 31 - 94 050",
        "internet_access": "wlan",
        "internet_access:fee": "no",
        "name": "Wildeshauser Hof",
        "phone": "+49 (0) 44 31 - 94 00",
        "smoking": "separated",
        "tourism": "hotel",
        "website": "https://www.wildeshauser-hof.de/",
        "wheelchair": "no"
      }
    },
    {
      "type": "node",
      "id": 129859076,
      "lat": 52.8969806,
      "lon": 8.4362483,
      "tags": {
        "addr:city": "Wildeshausen",
        "addr:country": "DE",
        "addr:housenumber": "1A",
        "addr:postcode": "27793",
        "addr:street": "Am Markt",
        "amenity": "restaurant",
        "check_date": "2024-06-21",
        "indoor_seating": "yes",
        "name": "Ratskeller",
        "opening_hours": "Tu-Fr 17:00+; Sa,Su 11:30+; Mo off",
        "outdoor_seating": "yes",
        "phone": "+49 4431 7097386",
        "wheelchair": "no"
      }
    },
    {
      "type": "node",
      "id": 295758825,
      "lat": 52.8988689,
      "lon": 8.4176399,
      "tags": {
        "addr:city": "Wildeshausen",
        "addr:housenumber": "12",
        "addr:postcode": "27793",
        "addr:street": "Dr.-Dürr-Straße",
        "brand": "ALDI Nord",
        "brand:wikidata": "Q41171373",
        "brand:wikipedia": "hu:Aldi Nord",
        "name": "ALDI Nord",
        "opening_hours": "Mo-Sa 08:00-20:00; Su, PH off",
        "shop": "supermarket",
        "website": "https://www.aldi-nord.de",
        "wheelchair": "yes"
      }
    },
    {
      "type": "node",
      "id": 295758859,
      "lat": 52.8993782,
      "lon": 8.4431322,
      "tags": {
        "addr:city": "Wildeshausen",
        "addr:housenumber": "7",
        "addr:postcode": "27793",
        "addr:street": "Huntetor",
        "name": "Bäckerei Weymann",
        "opening_hours": "Mo-Sa 07:00-20:00; Su 07:30-12:00",
        "operator": "Bäckerei Weymann",
        "phone": "04431-9817720",
        "shop": "bakery",
        "website": "https://www.baeckerei-weymann.de",
        "wheelchair": "yes"
      }
    },
    {
      "type": "node",
      "id": 296441392,
      "lat": 52.8948145,
      "lon": 8.4334894,
      "tags": {
        "addr:city": "Wildeshausen",
        "addr:housenumber": "1",
        "addr:postcode": "27793",
        "addr:street": "Westertor",
        "name": "K&K",
        "opening_hours": "Mo-Sa 07:00-22:00; Su,PH off",
        "shop": "supermarket",
        "wheelchair": "yes"
      }
    },
    {
      "type": "node",
      "id": 303815919,
      "lat": 52.8762171,
      "lon": 8.2638574,
      "tags": {
        "addr:city": "Visbek",
        "addr:country": "DE",
        "addr:housenumber": "31",
        "addr:postcode": "49429",
        "addr:street": "Engelmannsbäke",
        "amenity": "restaurant",
        "fax": "+49 4445 959080",
        "name": "Landgasthof Engelmannsbäke",
        "phone": "+49 4445 2806",
        "website": "https://www.engelmannsbaeke.com"
      }
    },
    {
      "type": "node",
      "id": 393218314,
      "lat": 52.8992531,
      "lon": 8.3248261,
      "tags": {
        "addr:city": "Wildeshausen",
        "addr:country": "DE",
        "addr:housenumber": "80",
        "addr:postcode": "27793",
        "addr:street": "Aumühle",
        "amenity": "restaurant",
        "name": "Zur Visbeker Braut",
        "opening_hours": "Mo-Fr 09:00-24:00; Sa 09:00-18:00; Su 11:00-18:00",
        "payment:coins": "yes",
        "payment:diners_club": "yes",
        "payment:ep_geldkarte": "yes",
        "payment:maestro": "yes",
        "payment:mastercard": "yes",
        "payment:notes": "yes",
        "payment:visa": "yes",
        "payment:visa_debit": "no"
      }
    },
    {
      "type": "node",
      "id": 477821058,
      "lat": 52.8995408,
      "lon": 8.2199424,
      "tags": {
        "amenity": "fuel",
        "brand": "bft",
        "brand:wikidata": "Q1009104",
        "compressed_air": "yes",
        "fuel:diesel": "yes",
        "fuel:e10": "yes",
        "fuel:octane_95": "yes",
        "fuel:octane_98": "yes",
        "name": "bft",
        "operator": "bft",
        "payment:dkv": "yes",
        "payment:uta": "yes"
      }
    },
    {
      "type": "node",
      "id": 539727696,
      "lat": 52.8997603,
      "lon": 8.438436,
      "tags": {
        "addr:housenumber": "13",
        "addr:street": "Herrlichkeit",
        "amenity": "restaurant",
        "check_date": "2025-02-08",
        "contact:phone": "+49 4431 9463800",
        "contact:website": "http://www.amtshaus-wildeshausen.com",
        "cuisine": "german",
        "name": "Altes Amtshaus",
        "opening_hours": "We-Su 11:00+",
        "payment:cash": "yes",
        "payment:credit_cards": "yes",
        "payment:debit_cards": "yes",
        "toilets:wheelchair": "no",
        "wheelchair": "limited"
      }
    },
    {
      "type": "node",
      "id": 539737913,
      "lat": 52.8914002,
      "lon": 8.4394849,
      "tags": {
        "addr:city": "Wildeshausen",
        "addr:country": "DE",
        "addr:housenumber": "29",
        "addr:postcode": "27793",
        "addr:street": "Pestruper Straße",
        "amenity": "restaurant",
        "check_date": "2024-10-06",
        "cuisine": "italian",
        "name": "Pizzeria Calabria",
        "wheelchair": "no"
      }
    },
    {
      "type": "node",
      "id": 539738921,
      "lat": 52.8985444,
      "lon": 8.442568,
      "tags": {
        "addr:city": "Wildeshausen",
        "addr:country": "DE",
        "addr:housenumber": "1",
        "addr:postcode": "27793",
        "addr:street": "Huntetor",
        "amenity": "restaurant",
        "contact:phone": "+49 4431 9552595",
        "contact:website": "https://www.ristorante-alto.de/",
        "cuisine": "mediterranean",
        "name": "Al-To",
        "opening_hours": "Mo-Sa 17:00-23:00; PH,Su 12:00-14:30,17:00-22:00",
        "wheelchair": "no"
      }
    },
    {
      "type": "node",
      "id": 539739686,
      "lat": 52.8998647,
      "lon": 8.4442497,
      "tags": {
        "addr:city": "Wildeshausen",
        "addr:country": "DE",
        "addr:housenumber": "2",
        "addr:postcode": "27793",
        "addr:street": "Harpstedter Straße",
        "amenity": "restaurant",
        "cuisine": "greek",
        "name": "Ägäis",
        "opening_hours": "PH,We-Mo 17:00-22:30; Tu off",
        "phone": "+49 4431 4461",
        "wheelchair": "no"
      }
    },
    {
      "type": "node",
      "id": 540246990,
      "lat": 52.8944908,
      "lon": 8.4321993,
      "tags": {
        "amenity": "cafe",
        "name": "Cafe am Westertor",
        "toilets:wheelchair": "yes",
        "wheelchair": "yes"
      }
    },
    {
      "type": "node",
      "id": 544403286,
      "lat": 52.8974208,
      "lon": 8.4388573,
      "tags": {
        "addr:city": "Wildeshausen",
        "addr:housenumber": "32",
        "addr:postcode": "27793",
        "addr:street": "Huntestraße",
        "amenity": "cafe",
        "name": "Bäckerei Meyer",
        "shop": "bakery",
        "start_date": "1920",
        "website": "http://www.baecker-meyer.de/",
        "wheelchair": "no"
      }
    },
    {
      "type": "node",
      "id": 544403439,
      "lat": 52.896041,
      "lon": 8.4356086,
      "tags": {
        "addr:city": "Wildeshausen",
        "addr:housenumber": "21",
        "addr:postcode": "27793",
        "addr:street": "Westerstraße",
        "amenity": "cafe",
        "name": "Cafe Schnittker",
        "opening_hours": "Mo-Fr 06:30-18:00; Sa 06:30-13:00; Su 08:00-17:00",
        "shop": "bakery",
        "wheelchair": "yes"
      }
    },
    {
      "type": "node",
      "id": 560911017,
      "lat": 52.90107,
      "lon": 8.4616145,
      "tags": {
        "shop": "kiosk"
      }
    },
    {
      "type": "node",
      "id": 565361608,
      "lat": 52.8926581,
      "lon": 8.4135624,
      "tags": {
        "brand": "Famila",
        "brand:wikidata": "Q1395108",
        "brand:wikipedia": "de:Famila",
        "name": "Famila",
        "shop": "supermarket",
        "wheelchair": "yes"
      }
    },
    {
      "type": "node",
      "id": 574979036,
      "lat": 52.9588523,
      "lon": 8.617541,
      "tags": {
        "addr:city": "Groß Ippener",
        "addr:country": "DE",
        "addr:housenumber": "5",
        "addr:postcode": "27243",
        "addr:street": "Dorfstraße",
        "amenity": "restaurant",
        "cuisine": "regional;german",
        "email": "info@hotel-wuelfers.de",
        "name": "Gasthaus Wülfers",
        "phone": "+49 4224251",
        "start_date": "1926",
        "website": "https://www.hotel-wuelfers.de/"
      }
    },
    {
      "type": "node",
      "id": 577348795,
      "lat": 52.9100619,
      "lon": 8.5980975,
      "tags": {
        "addr:housenumber": "25",
        "addr:street": "Amtsfreiheit",
        "amenity": "fuel",
        "brand": "Esso",
        "brand:wikidata": "Q867662",
        "compressed_air": "yes",
        "name": "Esso",
        "opening_hours": "Mo-Fr 06:00-21:00; Sa 07:00-21:00; Su 09:00-21:00",
        "operator": "RWG Bassum-Harpstedt",
        "phone": "+49 4244 393"
      }
    },
    {
      "type": "node",
      "id": 581959127,
      "lat": 52.9068983,
      "lon": 8.5802378,
      "tags": {
        "amenity": "fuel",
        "brand": "Joiss",
        "compressed_air": "yes",
        "fuel:e10": "yes",
        "mapillary": "276734234322234",
        "name": "Tank-Center Harpstedt",
        "operator": "Jantzon Tankstellen GmbH",
        "survey:date": "2021-09-30"
      }
    },
    {
      "type": "node",
      "id": 606988342,
      "lat": 52.9033729,
      "lon": 8.5894109,
      "tags": {
        "amenity": "shelter"
      }
    },
    {
      "type": "node",
      "id": 608535490,
      "lat": 52.8959196,
      "lon": 8.4355253,
      "tags": {
        "addr:city": "Wildeshausen",
        "addr:country": "DE",
        "addr:housenumber": "23",
        "addr:postcode": "27793",
        "addr:street": "Westerstraße",
        "amenity": "cafe",
        "name": "Gelateria Italia",
        "toilets:wheelchair": "no",
        "wheelchair": "yes"
      }
    },
    {
      "type": "node",
      "id": 608535497,
      "lat": 52.8966057,
      "lon": 8.4354771,
      "tags": {
        "addr:city": "Wildeshausen",
        "addr:country": "DE",
        "addr:housenumber": "20",
        "addr:postcode": "27793",
        "addr:street": "Westerstraße",
        "amenity": "cafe",
        "name": "Eiscafe Capri",
        "opening_hours": "Mo-Sa 10:00-21:00; Su 11:00-21:00",
        "wheelchair": "yes"
      }
    },
    {
      "type": "node",
      "id": 615751234,
      "lat": 52.9114261,
      "lon": 8.2743399,
      "tags": {
        "addr:city": "Großenkneten",
        "addr:country": "DE",
        "addr:housenumber": "4",
        "addr:postcode": "26197",
        "addr:street": "Hageler Damm",
        "amenity": "cafe",
        "contact:facebook": "https://www.facebook.com/Schafstallcafe/",
        "contact:mobile": "+49 174 6414669",
        "name": "Schafstallcafe",
        "opening_hours": "Su,PH 14:00-18:00 \"an allen anderen Tagen auf Anmeldung\""
      }
    },
    {
      "type": "node",
      "id": 617267553,
      "lat": 52.8983104,
      "lon": 8.2347648,
      "tags": {
        "addr:city": "Großenkneten",
        "addr:country": "DE",
        "addr:housenumber": "52",
        "addr:postcode": "26197",
        "addr:street": "Wildeshauser Straße",
        "addr:suburb": "Ahlhorn",
        "amenity": "fuel",
        "brand": "Independent",
        "contact:phone": "+49 4435 970819",
        "contact:website": "https://www.hem-tankstelle.de/",
        "fuel:HGV_diesel": "yes",
        "fuel:adblue": "yes",
        "fuel:diesel": "yes",
        "fuel:e10": "yes",
        "fuel:octane_95": "yes",
        "fuel:octane_98": "yes",
        "name": "HEM",
        "opening_hours": "Mo-Th 05:30-22:00; Fr 05:30-22:30; Sa 05:30-22:00; Su,PH 06:00-22:00",
        "operator": "Axel Bronnenkant",
        "payment:dkv": "yes",
        "payment:uta": "yes",
        "shop": "yes",
        "wheelchair": "yes"
      }
    },
    {
      "type": "node",
      "id": 661030162,
      "lat": 52.899194,
      "lon": 8.2256945,
      "tags": {
        "amenity": "fast_food",
        "cuisine": "italian;kebab;turkish",
        "delivery": "Mo,We-Su 17:00-22:00",
        "name": "Döner Ring - DR",
        "opening_hours": "Mo,We,Th 11:30-14:00,17:00-22:30; Fr 11:30-14:00,17:00-23:00; Sa 16:00-23:00; Su 16:00-22:00; Tu off",
        "phone": "+49 4435 970667",
        "takeaway": "yes"
      }
    },
    {
      "type": "node",
      "id": 661030567,
      "lat": 52.90051,
      "lon": 8.209345,
      "tags": {
        "amenity": "restaurant",
        "cuisine": "regional",
        "diet:vegan": "yes",
        "diet:vegetarian": "yes",
        "name": "Altes Posthaus",
        "toilets:wheelchair": "no",
        "wheelchair": "limited"
      }
    },
    {
      "type": "node",
      "id": 758987665,
      "lat": 52.9386024,
      "lon": 8.3790427,
      "tags": {
        "addr:city": "Dötlingen",
        "addr:country": "DE",
        "addr:housenumber": "6",
        "addr:postcode": "27801",
        "addr:street": "Rittrumer Kirchweg",
        "amenity": "restaurant",
        "cuisine": "german",
        "description": "seit April 2016 \"Landhotel Dötlingen\" mit Cafe, Restaurant und Hotel; früherer Name \"Schützenhof Unter den Linden\"",
        "email": "landhotel-doetlingen@web.de",
        "fax": "+49 4433 352",
        "name": "LANDHOTEL Dötlingen",
        "name:en": "Landhotel Dötlingen",
        "operator": "Petra Büning",
        "phone": "+49 4433 362"
      }
    },
    {
      "type": "node",
      "id": 1029585763,
      "lat": 52.8952223,
      "lon": 8.4337901,
      "tags": {
        "addr:city": "Wildeshausen",
        "addr:housenumber": "1",
        "addr:postcode": "27793",
        "addr:street": "Neue Straße",
        "amenity": "restaurant",
        "cuisine": "pizza;italian",
        "name": "Pizzeria Italia",
        "opening_hours": "We-Mo 11:30-15:00,17:00-22:00",
        "phone": "+49 4431 8949953",
        "wheelchair": "yes"
      }
    },
    {
      "type": "node",
      "id": 1108391438,
      "lat": 52.9100241,
      "lon": 8.3529184,
      "tags": {
        "amenity": "toilets",
        "description": "unbenutzbar"
      }
    },
    {
      "type": "node",
      "id": 1170264813,
      "lat": 52.9080874,
      "lon": 8.5871085,
      "tags": {
        "addr:city": "Harpstedt",
        "addr:country": "DE",
        "addr:housenumber": "1 A",
        "addr:postcode": "27243",
        "addr:street": "Freistraße",
        "amenity": "ice_cream",
        "name": "Eiscafé Venezia",
        "opening_hours": "Mo-We 11:00-21:30; Th-Su 10:00-21:30",
        "phone": "+49 4244 8022",
        "toilets:wheelchair": "no",
        "wheelchair": "limited"
      }
    },
    {
      "type": "node",
      "id": 1219279138,
      "lat": 52.8550657,
      "lon": 8.2843585,
      "tags": {
        "amenity": "shelter"
      }
    },
    {
      "type": "node",
      "id": 1304127061,
      "lat": 52.9124335,
      "lon": 8.5908821,
      "tags": {
        "amenity": "shelter",
        "name": "Mooshütte"
      }
    },
    {
      "type": "node",
      "id": 1304127084,
      "lat": 52.9244544,
      "lon": 8.5770556,
      "tags": {
        "amenity": "shelter"
      }
    },
    {
      "type": "node",
      "id": 1380016769,
      "lat": 52.9093573,
      "lon": 8.5874655,
      "tags": {
        "addr:city": "Harpstedt",
        "addr:country": "DE",
        "addr:housenumber": "13",
        "addr:postcode": "27243",
        "addr:street": "Burgstraße",
        "cafe": "yes",
        "name": "Bäckermeister Haferkamp",
        "shop": "bakery",
        "toilets:wheelchair": "yes",
        "wheelchair": "yes"
      }
    },
    {
      "type": "node",
      "id": 1385976254,
      "lat": 52.9082808,
      "lon": 8.587616,
      "tags": {
        "amenity": "shelter"
      }
    },
    {
      "type": "node",
      "id": 1385977308,
      "lat": 52.9078927,
      "lon": 8.5877779,
      "tags": {
        "amenity": "shelter"
      }
    },
    {
      "type": "node",
      "id": 1406551162,
      "lat": 52.9356211,
      "lon": 8.3600524,
      "tags": {
        "tourism": "camp_site"
      }
    },
    {
      "type": "node",
      "id": 1459401749,
      "lat": 52.9000408,
      "lon": 8.2132273,
      "tags": {
        "addr:city": "Großenkneten",
        "addr:country": "DE",
        "addr:housenumber": "7a",
        "addr:postcode": "26197",
        "addr:street": "Wildeshauser Straße",
        "addr:suburb": "Ahlhorn",
        "amenity": "fast_food",
        "cuisine": "kebab",
        "internet_access": "no",
        "name": "euro döner",
        "opening_hours": "PH,Tu-Th,Su 12:00-22:00; Fr,Sa 12:00-23:00",
        "phone": "+49 4435 971313",
        "wheelchair": "yes"
      }
    },
    {
      "type": "node",
      "id": 1460336693,
      "lat": 52.8951516,
      "lon": 8.4308447,
      "tags": {
        "addr:city": "Wildeshausen",
        "addr:housenumber": "6A",
        "addr:postcode": "27793",
        "addr:street": "Ahlhorner Straße",
        "amenity": "restaurant",
        "disused:tourism": "hotel",
        "name": "Zur Rampe"
      }
    },
    {
      "type": "node",
      "id": 1474122122,
      "lat": 52.9014053,
      "lon": 8.4470061,
      "tags": {
        "amenity": "cafe",
        "name": "Landbäckerei Tönjes",
        "old_name": "Kolloge",
        "opening_hours": "Mo-Fr 05:30-18:00; Sa 05:30-17:00; Su 07:00-17:00",
        "shop": "bakery"
      }
    },
    {
      "type": "node",
      "id": 1542679387,
      "lat": 52.8951256,
      "lon": 8.4359029,
      "tags": {
        "addr:city": "Wildeshausen",
        "addr:housenumber": "22",
        "addr:postcode": "27793",
        "addr:street": "Sögestraße",
        "amenity": "restaurant",
        "cuisine": "italian",
        "name": "A Modo Mio",
        "opening_hours": "Mo-Th 12:00-14:30,17:00-22:00; Tu off; Fr,Sa 12:00-14:30,17:00-23:00; Su 17:00-22:00; PH 17:00-22:00"
      }
    },
    {
      "type": "node",
      "id": 1628572328,
      "lat": 52.9085109,
      "lon": 8.5874905,
      "tags": {
        "addr:city": "Harpstedt",
        "addr:country": "DE",
        "addr:housenumber": "10",
        "addr:postcode": "27243",
        "addr:street": "Lange Straße",
        "amenity": "restaurant",
        "bar": "yes",
        "cafe": "yes",
        "cuisine": "german",
        "name": "Charisma",
        "opening_hours": "We, Th 17:00-22:30; Fr, Sa 17:00-23:59; Su 12:00-14:00, 17:00-22:30",
        "operator": "Andreas Jakob",
        "phone": "+49 4244 967666",
        "smoking": "separated",
        "toilets:wheelchair": "no",
        "website": "https://charisma-harpstedt.com/",
        "wheelchair": "yes"
      }
    },
    {
      "type": "node",
      "id": 1628572351,
      "lat": 52.9076698,
      "lon": 8.5879698,
      "tags": {
        "addr:city": "Harpstedt",
        "addr:country": "DE",
        "addr:housenumber": "20",
        "addr:postcode": "27243",
        "addr:street": "Lange Straße",
        "amenity": "restaurant",
        "cuisine": "steak_house",
        "email": "info@peters-steakhouse.de",
        "name": "https://peters-steakhouse.de/",
        "opening_hours": "Mo off; Tu-Th,Su 17:00-23:00; Fr,Sa 17:00-24:00",
        "phone": "+49 4244 29 90 86 0",
        "website": "https://peters-steakhouse.de/"
      }
    },
    {
      "type": "node",
      "id": 1628572588,
      "lat": 52.9081219,
      "lon": 8.5872697,
      "tags": {
        "addr:city": "Harpstedt",
        "addr:country": "DE",
        "addr:housenumber": "15",
        "addr:postcode": "27243",
        "addr:street": "Lange Straße",
        "amenity": "restaurant",
        "cuisine": "american",
        "name": "Liberty's",
        "opening_hours": "Mo-Fr,Su 12:00-22:00; Sa 11:00-23:00",
        "operator": "Metin Kalabalik",
        "phone": "+49 4244 9679874",
        "smoking": "no",
        "website": "https://www.libertys-harpstedt.de/",
        "wheelchair": "no"
      }
    },
    {
      "type": "node",
      "id": 1628573398,
      "lat": 52.9092821,
      "lon": 8.5885544,
      "tags": {
        "addr:city": "Harpstedt",
        "addr:country": "DE",
        "addr:housenumber": "1",
        "addr:postcode": "27243",
        "addr:street": "Grüne Straße",
        "amenity": "restaurant",
        "cuisine": "kebab",
        "name": "euro döner",
        "operator": "Euro Döner Group",
        "phone": "+49 4244 9188721",
        "website": "https://www.euro-doener.de/",
        "wheelchair": "limited"
      }
    },
    {
      "type": "node",
      "id": 1628573403,
      "lat": 52.9088678,
      "lon": 8.5869567,
      "tags": {
        "addr:city": "Harpstedt",
        "addr:country": "DE",
        "addr:housenumber": "3",
        "addr:postcode": "27243",
        "addr:street": "Lange Straße",
        "amenity": "fast_food",
        "cuisine": "german",
        "name": "pappsatt!",
        "operator": "Cornelia Wegner",
        "phone": "+49 4244 323",
        "website": "http://www.pappsatt-harpstedt.de",
        "wheelchair": "yes"
      }
    },
    {
      "type": "node",
      "id": 1920905484,
      "lat": 52.9163773,
      "lon": 8.5970346,
      "tags": {
        "addr:housenumber": "8",
        "addr:postcode": "27243",
        "addr:street": "Königsberger Straße",
        "amenity": "restaurant",
        "name": "Ristorante Santuccio",
        "opening_hours": "Tu-Fr 11:30-14:00,17:30-22:00; Sa,Su 17:30-22:45",
        "phone": "042449653599"
      }
    },
    {
      "type": "node",
      "id": 1920951647,
      "lat": 52.9159811,
      "lon": 8.5926465,
      "tags": {
        "designation": "Ferienwohnung",
        "name": "FeWo im Keramikhaus",
        "tourism": "guest_house"
      }
    },
    {
      "type": "node",
      "id": 1950848092,
      "lat": 52.907622,
      "lon": 8.5800253,
      "tags": {
        "addr:housenumber": "14",
        "addr:street": "Auf dem Essenberg",
        "name": "Michl",
        "phone": "+49 4244 587",
        "shop": "bicycle",
        "website": "https://www.michl-harpstedt.de/"
      }
    },
    {
      "type": "node",
      "id": 2056992117,
      "lat": 52.8928057,
      "lon": 8.4137755,
      "tags": {
        "amenity": "restaurant",
        "cuisine": "mediterranean",
        "name": "Aykut",
        "wheelchair": "yes"
      }
    },
    {
      "type": "node",
      "id": 2056992124,
      "lat": 52.8930176,
      "lon": 8.4136709,
      "tags": {
        "amenity": "restaurant",
        "cuisine": "italian",
        "name": "Cristallo",
        "wheelchair": "yes"
      }
    },
    {
      "type": "node",
      "id": 2056992127,
      "lat": 52.8927054,
      "lon": 8.4138251,
      "tags": {
        "name": "Mühlbach’s Backstube",
        "shop": "bakery",
        "wheelchair": "yes"
      }
    },
    {
      "type": "node",
      "id": 2056995968,
      "lat": 52.8929139,
      "lon": 8.4137221,
      "tags": {
        "name": "Wolsdorf Tabacco",
        "shop": "kiosk",
        "wheelchair": "yes"
      }
    },
    {
      "type": "node",
      "id": 2160036257,
      "lat": 52.9151486,
      "lon": 8.4224804,
      "tags": {
        "amenity": "cafe",
        "brand": "Lavazza",
        "brand:wikidata": "Q543750",
        "cuisine": "coffee_shop",
        "name": "Lavazza",
        "takeaway": "yes",
        "toilets:wheelchair": "yes",
        "wheelchair": "no"
      }
    },
    {
      "type": "node",
      "id": 2329709255,
      "lat": 52.9589733,
      "lon": 8.6177142,
      "tags": {
        "addr:city": "Groß Ippener",
        "addr:housenumber": "5",
        "addr:postcode": "27243",
        "addr:street": "Dorfstraße",
        "email": "info@hotel-wuelfers.de",
        "fax": "+49 42 24 14 19 94",
        "internet_access": "wlan",
        "internet_access:fee": "customers",
        "name": "Hotel Wülfers",
        "phone": "+49 42 24 251",
        "reservation": "yes",
        "rooms": "9",
        "start_date": "1926",
        "tourism": "hotel",
        "website": "https://www.hotel-wuelfers.de/de/hotel.html"
      }
    },
    {
      "type": "node",
      "id": 2462055168,
      "lat": 52.8602079,
      "lon": 8.3037124,
      "tags": {
        "addr:city": "Visbek",
        "addr:housenumber": "19",
        "addr:postcode": "49429",
        "addr:street": "Siedenbögen",
        "amenity": "restaurant",
        "cuisine": "regional",
        "name": "Bullmühle Restaurant & Cafe",
        "phone": "+49 4445 9571385",
        "website": "http://www.bullmühle.de"
      }
    },
    {
      "type": "node",
      "id": 2507152343,
      "lat": 52.8967336,
      "lon": 8.4355712,
      "tags": {
        "addr:city": "Wildeshausen",
        "addr:housenumber": "18",
        "addr:postcode": "27793",
        "addr:street": "Westerstraße",
        "check_date:opening_hours": "2024-07-19",
        "name": "Landbäckerei Diekhaus",
        "opening_hours": "Mo-Fr 07:00-18:00; Sa 07:00-13:00; Su 07:30-12:00",
        "organic": "only",
        "phone": "+49 4431 7093909",
        "shop": "bakery",
        "website": "https://www.diekhaus-landbaeckerei.de/"
      }
    },
    {
      "type": "node",
      "id": 2507166230,
      "lat": 52.894986,
      "lon": 8.4340638,
      "tags": {
        "addr:city": "Wildeshausen",
        "addr:housenumber": "2",
        "addr:postcode": "27793",
        "addr:street": "Sögestraße",
        "amenity": "restaurant",
        "capacity": "25",
        "cuisine": "asian sushi",
        "delivery": "yes",
        "name": "Taiyo",
        "opening_hours": "Tu-Sa 11:00-15:00,17:00-22:00; Su,PH 12:00-15:00,17:00-22:00; Mo off",
        "outdoor_seating": "yes",
        "phone": "+49 4431 7483200",
        "smoking": "outside",
        "takeaway": "yes",
        "website": "https://www.facebook.com/TaiyoSushi2022",
        "wheelchair": "limited"
      }
    },
    {
      "type": "node",
      "id": 2515584582,
      "lat": 52.8914001,
      "lon": 8.4386541,
      "tags": {
        "addr:city": "Wildeshausen",
        "addr:country": "DE",
        "addr:housenumber": "22",
        "addr:postcode": "27793",
        "addr:street": "Pestruper Straße",
        "amenity": "fast_food",
        "contact:phone": "+49 4431 7092320",
        "cuisine": "kebab",
        "name": "First Döner",
        "opening_hours": "Mo-Sa 11:00-21:00; Su 13:00-21:00",
        "takeaway": "yes"
      }
    },
    {
      "type": "node",
      "id": 2522354468,
      "lat": 52.8945692,
      "lon": 8.4317092,
      "tags": {
        "addr:city": "Wildeshausen",
        "addr:housenumber": "2",
        "addr:postcode": "27793",
        "addr:street": "Visbeker Straße",
        "name": "Zweirad- Profi Büld",
        "opening_hours": "Mo-Fr 09:00-13:00,14:30-18:00;Sa 09:00-13:00",
        "phone": "+49 4431 92590",
        "shop": "bicycle",
        "website": "https://zweirad-profi.de/"
      }
    },
    {
      "type": "node",
      "id": 2548390414,
      "lat": 52.897964,
      "lon": 8.5053597,
      "tags": {
        "tourism": "camp_site"
      }
    },
    {
      "type": "node",
      "id": 2561038301,
      "lat": 52.894226,
      "lon": 8.4308499,
      "tags": {
        "addr:city": "Wildeshausen",
        "addr:country": "DE",
        "addr:housenumber": "4",
        "addr:postcode": "27793",
        "addr:street": "Visbeker Straße",
        "amenity": "restaurant",
        "contact:facebook": "https://www.facebook.com/Pizzathekwildeshausen/",
        "cuisine": "pizza",
        "delivery": "yes",
        "name": "Pizzathek",
        "opening_hours": "Mo-Su 17:00-22:00",
        "takeaway": "yes",
        "wheelchair": "yes"
      }
    },
    {
      "type": "node",
      "id": 2717870656,
      "lat": 52.8966574,
      "lon": 8.4241002,
      "tags": {
        "name": "Bäckerei Freker",
        "shop": "bakery"
      }
    },
    {
      "type": "node",
      "id": 2726498121,
      "lat": 52.8748343,
      "lon": 8.297543,
      "tags": {
        "amenity": "shelter",
        "bench": "yes",
        "shelter_type": "weather_shelter"
      }
    },
    {
      "type": "node",
      "id": 2760407672,
      "lat": 52.8967579,
      "lon": 8.4372139,
      "tags": {
        "access": "yes",
        "amenity": "toilets",
        "fee": "no",
        "toilets:wheelchair": "yes",
        "wheelchair": "yes"
      }
    },
    {
      "type": "node",
      "id": 2885349911,
      "lat": 52.8951538,
      "lon": 8.412521,
      "tags": {
        "addr:city": "Wildeshausen",
        "addr:country": "DE",
        "addr:housenumber": "6",
        "addr:postcode": "27793",
        "addr:street": "Westring",
        "brand": "EDEKA",
        "brand:wikidata": "Q701755",
        "brand:wikipedia": "de:Edeka",
        "check_date": "2022-06-03",
        "name": "EDEKA",
        "opening_hours": "Mo-Sa 08:00-21:00; Su, PH off",
        "payment:google_pay": "yes",
        "shop": "supermarket",
        "wheelchair": "yes"
      }
    },
    {
      "type": "node",
      "id": 2980026345,
      "lat": 52.8996072,
      "lon": 8.218321,
      "tags": {
        "amenity": "restaurant",
        "check_date": "2024-11-10",
        "contact:phone": "+49 4435 970290",
        "cuisine": "asian",
        "name": "papaya WOK",
        "opening_hours": "Tu-Fr 11:00-14:00, 17:00-21:00; Sa,Su,PH 12:00-21:00; Mo off",
        "website": "https://www.asia-papaya.de/"
      }
    },
    {
      "type": "node",
      "id": 2980029557,
      "lat": 52.8997137,
      "lon": 8.2180375,
      "tags": {
        "amenity": "fast_food",
        "check_date": "2024-11-10",
        "level": "0",
        "name": "Ahlhorner Grill",
        "opening_hours": "Mo-Tu off; We-Sa 11:30-21:00; Su 16:00-21:00",
        "takeaway": "yes"
      }
    },
    {
      "type": "node",
      "id": 3311678540,
      "lat": 52.8519173,
      "lon": 8.3217068,
      "tags": {
        "amenity": "restaurant"
      }
    },
    {
      "type": "node",
      "id": 3311678542,
      "lat": 52.8623425,
      "lon": 8.324975,
      "tags": {
        "addr:city": "Visbek",
        "addr:housenumber": "22",
        "addr:place": "Varnhorn",
        "addr:postcode": "49429",
        "amenity": "restaurant",
        "cuisine": "regional",
        "name": "Helga u. Heinrich Bramlage"
      }
    },
    {
      "type": "node",
      "id": 3416436259,
      "lat": 52.9046807,
      "lon": 8.3585371,
      "tags": {
        "amenity": "shelter"
      }
    },
    {
      "type": "node",
      "id": 3436708513,
      "lat": 52.9650673,
      "lon": 8.5725262,
      "tags": {
        "amenity": "shelter"
      }
    },
    {
      "type": "node",
      "id": 3726198347,
      "lat": 52.9003964,
      "lon": 8.2144036,
      "tags": {
        "addr:city": "Großenkneten",
        "addr:country": "DE",
        "addr:housenumber": "8-10",
        "addr:postcode": "26197",
        "addr:street": "Wildeshauser Straße",
        "addr:suburb": "Ahlhorn",
        "amenity": "cafe",
        "check_date": "2024-11-10",
        "level": "0",
        "name": "Meyer Mönchhof",
        "opening_hours": "Mo-Sa 06:00-20:00; Su off",
        "payment:cash": "yes",
        "payment:credit_cards": "yes",
        "payment:debit_cards": "yes",
        "phone": "+49 4435 916 294",
        "shop": "bakery",
        "website": "https://www.meyermoenchhof.de/",
        "wheelchair": "yes"
      }
    },
    {
      "type": "node",
      "id": 3729526225,
      "lat": 52.9150918,
      "lon": 8.4225125,
      "tags": {
        "access": "yes",
        "amenity": "toilets",
        "brand": "SANIFAIR",
        "brand:wikidata": "Q104814416",
        "changing_table": "yes",
        "fee": "yes",
        "name": "Öffentliches WC",
        "operator": "SANIFAIR GmbH",
        "operator:wikidata": "Q104814416",
        "toilets:wheelchair": "yes",
        "wheelchair": "yes"
      }
    },
    {
      "type": "node",
      "id": 3742323890,
      "lat": 52.9001129,
      "lon": 8.2124316,
      "tags": {
        "addr:city": "Großenkneten",
        "addr:country": "DE",
        "addr:housenumber": "5",
        "addr:postcode": "26197",
        "addr:street": "Wildeshauser Straße",
        "addr:suburb": "Ahlhorn",
        "check_date": "2024-11-10",
        "check_date:opening_hours": "2023-11-26",
        "name": "Frerker",
        "opening_hours": "Mo-Sa 06:00-11:00; Su off",
        "phone": "+49 4435 388755",
        "shop": "bakery",
        "website": "https://stadtbaeckerei-frerker.de/",
        "wheelchair": "yes"
      }
    },
    {
      "type": "node",
      "id": 4227134409,
      "lat": 52.8979595,
      "lon": 8.4420503,
      "tags": {
        "addr:city": "Wildeshausen",
        "addr:housenumber": "14",
        "addr:postcode": "27793",
        "addr:street": "Zwischenbrücken",
        "amenity": "restaurant",
        "capacity": "100",
        "check_date": "2025-01-13",
        "cuisine": "regional",
        "name": "Gildestuben",
        "smoking": "isolated",
        "wheelchair": "yes"
      }
    },
    {
      "type": "node",
      "id": 4618960330,
      "lat": 52.8763259,
      "lon": 8.3179665,
      "tags": {
        "amenity": "shelter",
        "shelter_type": "weather_shelter"
      }
    },
    {
      "type": "node",
      "id": 4640258994,
      "lat": 52.9411175,
      "lon": 8.347718,
      "tags": {
        "addr:city": "Dötlingen",
        "addr:country": "DE",
        "addr:housenumber": "3",
        "addr:postcode": "27801",
        "addr:street": "Oelmühle",
        "internet_access": "wlan",
        "internet_access:fee": "no",
        "name": "Ferienwohnung Oelmühle",
        "number_of_apartments": "1",
        "operator": "H. Aschenbeck",
        "tourism": "apartment",
        "website": "https://www.doetlingen-ferienwohnung.de/"
      }
    },
    {
      "type": "node",
      "id": 4656870214,
      "lat": 52.9082752,
      "lon": 8.5962249,
      "tags": {
        "shop": "kiosk"
      }
    },
    {
      "type": "node",
      "id": 4665246033,
      "lat": 52.9097272,
      "lon": 8.5988682,
      "tags": {
        "addr:city": "Harpstedt",
        "addr:housenumber": "1",
        "addr:postcode": "27243",
        "addr:street": "Waldstraße",
        "check_date": "2025-07-13",
        "check_date:opening_hours": "2025-07-13",
        "name": "Behrens-Meyer",
        "opening_hours": "Mo-Fr 06:00-18:00; Sa 06:00-16:00; Su 08:00-11:00",
        "operator": "Bäckerei-Konditorei Behrens-Meyer GmbH",
        "phone": "+49 4244 919758",
        "shop": "bakery",
        "website": "https://www.behrens-meyer.de/"
      }
    },
    {
      "type": "node",
      "id": 4665246400,
      "lat": 52.9072259,
      "lon": 8.5824621,
      "tags": {
        "name": "Bäcker Meyer Mönchhof",
        "shop": "bakery",
        "wheelchair": "yes"
      }
    },
    {
      "type": "node",
      "id": 4666240801,
      "lat": 52.9149361,
      "lon": 8.4256339,
      "tags": {
        "access": "yes",
        "amenity": "toilets",
        "fee": "yes",
        "female": "yes",
        "male": "yes",
        "operator": "Sanifair",
        "toilets:wheelchair": "yes",
        "wheelchair": "yes"
      }
    },
    {
      "type": "node",
      "id": 4811370722,
      "lat": 52.9012299,
      "lon": 8.2131578,
      "tags": {
        "addr:city": "Großenkneten",
        "addr:country": "DE",
        "addr:housenumber": "6a",
        "addr:postcode": "26197",
        "addr:street": "Wildeshauser Straße",
        "addr:suburb": "Ahlhorn",
        "name": "Behrens-Meyer",
        "opening_hours": "Mo-Fr 07:00-18:00; Sa 07:00-18:00; Su,PH off",
        "phone": "+49 4435 3868301",
        "shop": "bakery",
        "website": "https://www.behrens-meyer.de/",
        "wheelchair": "yes"
      }
    },
    {
      "type": "node",
      "id": 5157833851,
      "lat": 52.896859,
      "lon": 8.4210916,
      "tags": {
        "amenity": "fuel",
        "brand": "Independent",
        "covered": "no",
        "fuel:diesel": "yes",
        "name": "Hoyer",
        "opening_hours": "Mo-Su 06:00-22:00",
        "shop": "no",
        "website": "https://www.hoyer-tankstellen.de/"
      }
    },
    {
      "type": "node",
      "id": 5248536552,
      "lat": 52.8876189,
      "lon": 8.5303742,
      "tags": {
        "addr:city": "Winkelsett",
        "addr:country": "DE",
        "addr:housenumber": "3",
        "addr:place": "Barjenbruch",
        "addr:postcode": "27243",
        "amenity": "restaurant",
        "name": "Essgarten Orangerie",
        "operator": "Heike und Fris Deemter",
        "phone": "+4942441771"
      }
    },
    {
      "type": "node",
      "id": 5908941756,
      "lat": 52.9138939,
      "lon": 8.4240493,
      "tags": {
        "access": "yes",
        "amenity": "toilets",
        "brand": "SANIFAIR",
        "brand:wikidata": "Q104814416",
        "changing_table": "yes",
        "fee": "yes",
        "fixme": "Position estimated",
        "operator": "SANIFAIR GmbH",
        "operator:wikidata": "Q104814416",
        "wheelchair": "yes"
      }
    },
    {
      "type": "node",
      "id": 6433901582,
      "lat": 52.954416,
      "lon": 8.5541295,
      "tags": {
        "access": "yes",
        "amenity": "toilets",
        "fee": "no",
        "opening_hours": "24/7",
        "toilets:disposal": "flush",
        "toilets:position": "seated;urinal",
        "wheelchair": "yes"
      }
    },
    {
      "type": "node",
      "id": 7116373923,
      "lat": 52.9475998,
      "lon": 8.5359468,
      "tags": {
        "access": "yes",
        "amenity": "toilets",
        "fee": "no",
        "opening_hours": "24/7",
        "toilets:disposal": "flush",
        "toilets:position": "seated;urinal",
        "wheelchair": "yes"
      }
    },
    {
      "type": "node",
      "id": 8040729647,
      "lat": 52.8974274,
      "lon": 8.4384347,
      "tags": {
        "amenity": "fast_food",
        "name": "Marmaris",
        "opening_hours": "Mo-Fr 11:00-22:00; Sa 11:00-21:00",
        "outdoor_seating": "yes",
        "phone": "+49 4431 738 3281",
        "takeaway": "yes"
      }
    },
    {
      "type": "node",
      "id": 8255832830,
      "lat": 52.9073014,
      "lon": 8.5803182,
      "tags": {
        "amenity": "vending_machine",
        "check_date": "2024-01-22",
        "vending": "bicycle_tube"
      }
    },
    {
      "type": "node",
      "id": 8555223836,
      "lat": 52.8999671,
      "lon": 8.2137233,
      "tags": {
        "description": "Tabakwaren, Süßwaren und Getränke",
        "name": "Amir Kiosk",
        "shop": "kiosk"
      }
    },
    {
      "type": "node",
      "id": 8555223837,
      "lat": 52.8999477,
      "lon": 8.2112208,
      "tags": {
        "amenity": "cafe",
        "check_date": "2024-11-10",
        "contact:website": "https://www.baeckerei-knappe.de/",
        "level": "0",
        "name": "Knappe",
        "opening_hours": "Mo-Fr 05:30-17:00; Sa 05:30-12:00; Su 07:30-11:30",
        "outdoor_seating": "yes",
        "payment:cash": "yes",
        "payment:credit_cards": "yes",
        "payment:debit_cards": "yes",
        "shop": "bakery",
        "tickets:public_transport": "yes",
        "wheelchair": "yes"
      }
    },
    {
      "type": "node",
      "id": 8904301787,
      "lat": 52.8952797,
      "lon": 8.4123292,
      "tags": {
        "check_date:opening_hours": "2022-10-03",
        "contact:website": "https://www.schaefers-brot.de/filialen/",
        "name": "Cafe am Westring",
        "opening_hours": "Mo-Sa 08:00-21:00",
        "shop": "bakery",
        "wheelchair": "yes"
      }
    },
    {
      "type": "node",
      "id": 8904301788,
      "lat": 52.895338,
      "lon": 8.4123319,
      "tags": {
        "amenity": "cafe",
        "check_date:opening_hours": "2022-10-03",
        "contact:website": "https://www.schaefers-brot.de/filialen/",
        "indoor_seating": "yes",
        "name": "Cafe am Westring",
        "opening_hours": "Mo-Sa 08:00-21:00",
        "snack": "yes",
        "wheelchair": "yes"
      }
    },
    {
      "type": "node",
      "id": 9812673518,
      "lat": 52.9106668,
      "lon": 8.322762,
      "tags": {
        "name": "Ferienwohnung Schuster",
        "tourism": "apartment"
      }
    },
    {
      "type": "node",
      "id": 9858477088,
      "lat": 52.9394243,
      "lon": 8.3784114,
      "tags": {
        "internet_access": "wlan",
        "name": "FeWo \"Am Steingrab\"",
        "source": "survey",
        "source:date": "2022-06-30",
        "tourism": "apartment",
        "website": "https://www.renemarkus.de/"
      }
    },
    {
      "type": "node",
      "id": 9858483384,
      "lat": 52.9353199,
      "lon": 8.3810024,
      "tags": {
        "amenity": "cafe",
        "name": "Café Behr",
        "outdoor_seating": "yes"
      }
    },
    {
      "type": "node",
      "id": 9878521179,
      "lat": 52.8951013,
      "lon": 8.4302218,
      "tags": {
        "amenity": "fast_food",
        "delivery": "no",
        "drive_through": "no",
        "name": "PP - Der Grill",
        "opening_hours": "Tu-Sa 11:30-22:00; Su 16:00-18:00+",
        "operator": "Bultmeier",
        "smoking": "no",
        "takeaway": "yes",
        "wheelchair": "yes"
      }
    },
    {
      "type": "node",
      "id": 9879351720,
      "lat": 52.884047,
      "lon": 8.4144089,
      "tags": {
        "addr:city": "Wildeshausen",
        "addr:housenumber": "7",
        "addr:postcode": "27793",
        "addr:street": "Ottostraße",
        "amenity": "fast_food",
        "contact:facebook": "https://www.facebook.com/westring24/?locale=de_DE",
        "name": "Westring-Imbiss",
        "phone": "04431 7480709"
      }
    },
    {
      "type": "node",
      "id": 9883322990,
      "lat": 52.8770261,
      "lon": 8.453022,
      "tags": {
        "amenity": "toilets"
      }
    },
    {
      "type": "node",
      "id": 9901184975,
      "lat": 52.9168316,
      "lon": 8.3322769,
      "tags": {
        "name": "Ferienwohnung Heinefelde",
        "tourism": "apartment"
      }
    },
    {
      "type": "node",
      "id": 9901380469,
      "lat": 52.9388317,
      "lon": 8.3778331,
      "tags": {
        "contact:email": "ngrid-boetefuer@t-online.de",
        "contact:mobile": "+49 0172 4223750",
        "contact:phone": "+49 4433 496",
        "name": "Ferienwohnung Bötefür",
        "operator": "Ingrid & Walter Bötefür",
        "source": "survey",
        "source:date": "2022-06-30",
        "tourism": "apartment",
        "website": "https://www.ferienwohnung-doetlingen.de/ferienwohnung-doetlingen.homepage.t-online.de/index.html"
      }
    },
    {
      "type": "node",
      "id": 9901459787,
      "lat": 52.9384777,
      "lon": 8.3793351,
      "tags": {
        "addr:city": "Dötlingen",
        "addr:country": "DE",
        "addr:housenumber": "6",
        "addr:postcode": "27801",
        "addr:street": "Rittrumer Kirchweg",
        "description": "seit April 2016 \"Landhotel Dötlingen\" mit Cafe, Restaurant und Hotel; früherer Name \"Schützenhof Unter den Linden\"",
        "email": "landhotel-doetlingen@web.de",
        "fax": "+49 4433 352",
        "name": "LANDHOTEL Dötlingen",
        "name:en": "Landhotel Dötlingen",
        "operator": "Petra Büning",
        "phone": "+49 4433 362",
        "tourism": "hotel"
      }
    },
    {
      "type": "node",
      "id": 9901554930,
      "lat": 52.9376161,
      "lon": 8.3800942,
      "tags": {
        "amenity": "cafe",
        "contact:email": "hallo@heuerhauscafe.de",
        "contact:fax": "+49 4433 969893",
        "contact:phone": "+49 4433 969591",
        "indoor_seating": "yes",
        "name": "Heuerhaus Café",
        "operator": "Laura Divay",
        "outdoor_seating": "yes",
        "website": "https://www.heuerhauscafe.de/"
      }
    },
    {
      "type": "node",
      "id": 9908227568,
      "lat": 52.9003065,
      "lon": 8.215261,
      "tags": {
        "addr:city": "Großenkneten",
        "addr:country": "DE",
        "addr:housenumber": "14",
        "addr:postcode": "26197",
        "addr:street": "Wildeshauser Straße",
        "addr:suburb": "Ahlhorn",
        "check_date": "2025-06-06",
        "contact:phone": "+49 4435 3869371",
        "contact:website": "https://www.hoegemann-zweirad.de/",
        "name": "Högemann eBike Center",
        "opening_hours": "Tu-Fr 09:00-12:30,13:30-18:00; Sa 09:00-13:00; Mo,Su,PH off",
        "service:bicycle:retail": "yes",
        "shop": "bicycle",
        "wheelchair": "yes"
      }
    },
    {
      "type": "node",
      "id": 9978122249,
      "lat": 52.9052394,
      "lon": 8.577926,
      "tags": {
        "addr:city": "Harpstedt",
        "addr:country": "DE",
        "addr:housenumber": "2",
        "addr:postcode": "27243",
        "addr:street": "Wildeshauser Straße",
        "brand": "ALDI Nord",
        "brand:wikidata": "Q41171373",
        "name": "ALDI Nord",
        "opening_hours": "Mo-Sa 07:00-20:00; Su,PH off",
        "shop": "supermarket",
        "wheelchair": "yes"
      }
    },
    {
      "type": "node",
      "id": 10073004134,
      "lat": 52.8974022,
      "lon": 8.4401205,
      "tags": {
        "addr:city": "Wildeshausen",
        "addr:country": "DE",
        "addr:housenumber": "1b",
        "addr:postcode": "27793",
        "addr:street": "Wittekindstraße",
        "amenity": "restaurant",
        "cuisine": "italian",
        "email": "wildeshausen@dasergio.net",
        "internet_access": "wlan",
        "name": "da Sergio",
        "phone": "+49 4431 748 4330",
        "toilets": "yes",
        "website": "https://dasergio.net/wildeshausen",
        "wheelchair": "yes"
      }
    },
    {
      "type": "node",
      "id": 10077470218,
      "lat": 52.8945152,
      "lon": 8.4306067,
      "tags": {
        "addr:city": "Wildeshausen",
        "addr:housenumber": "8",
        "addr:postcode": "27793",
        "addr:street": "Wilhelmshöhe",
        "amenity": "restaurant",
        "cuisine": "pizza",
        "name": "La Mare",
        "opening_hours": "Tu-Fr 15:00-22:00; Sa,Su 15:45-22:00; Mo off",
        "phone": "+49 44 31 - 7396664"
      }
    },
    {
      "type": "node",
      "id": 10142318914,
      "lat": 52.958199,
      "lon": 8.6062917,
      "tags": {
        "amenity": "vending_machine",
        "vending": "food"
      }
    },
    {
      "type": "node",
      "id": 10214218355,
      "lat": 52.905213,
      "lon": 8.5784658,
      "tags": {
        "name": "Weymann",
        "opening_hours": "Mo-Fr 07:00-20:00; Sa 07:00-19:00; Su 07:30-17:00",
        "shop": "bakery",
        "toilets:wheelchair": "yes",
        "wheelchair": "yes"
      }
    },
    {
      "type": "node",
      "id": 10214218356,
      "lat": 52.9053541,
      "lon": 8.5788931,
      "tags": {
        "addr:city": "Harpstedt",
        "addr:country": "DE",
        "addr:housenumber": "2",
        "addr:postcode": "27243",
        "addr:street": "Wildeshauser Straße",
        "contact:phone": "+49 4244 9267 0",
        "contact:website": "https://www.inkoop.de/",
        "name": "inkoop",
        "opening_hours": "Mo-Sa 07:00-21:00; Su,PH off",
        "shop": "supermarket",
        "toilets:wheelchair": "yes",
        "wheelchair": "yes"
      }
    },
    {
      "type": "node",
      "id": 10302727045,
      "lat": 52.843731,
      "lon": 8.3087275,
      "tags": {
        "amenity": "vending_machine",
        "vending": "sweets"
      }
    },
    {
      "type": "node",
      "id": 10567935243,
      "lat": 52.8976659,
      "lon": 8.4395191,
      "tags": {
        "addr:city": "Wildeshausen",
        "addr:housenumber": "41",
        "addr:postcode": "27793",
        "addr:street": "Huntestraße",
        "amenity": "restaurant",
        "cuisine": "asian",
        "name": "BOME",
        "opening_hours": "We-Su 17:00-22:30",
        "phone": "04431 7049865",
        "website": "https://www.meinbome.de/standort-wildeshausen"
      }
    },
    {
      "type": "node",
      "id": 10567951171,
      "lat": 52.8975996,
      "lon": 8.4380386,
      "tags": {
        "addr:city": "Wildeshausen",
        "addr:housenumber": "19",
        "addr:postcode": "27793",
        "addr:street": "Huntestraße",
        "name": "Wildeshausener Kiosk",
        "opening_hours": "Mo-Th 09:30-23:00, Fr,Sa 09:30-24:00, Su,PH 14:45-22:45",
        "shop": "kiosk"
      }
    },
    {
      "type": "node",
      "id": 10571477104,
      "lat": 52.8974658,
      "lon": 8.4375929,
      "tags": {
        "addr:city": "Wildeshausen",
        "addr:housenumber": "18",
        "addr:postcode": "27793",
        "addr:street": "Huntestraße",
        "amenity": "restaurant",
        "contact:mobile": "+49 1590 5344863",
        "cuisine": "asian",
        "name": "Golden Lotus",
        "opening_hours": "Mo-Fr,Su 11:30-15:00,17:00-21:30; Sa off"
      }
    },
    {
      "type": "node",
      "id": 11067755908,
      "lat": 52.8950161,
      "lon": 8.433125,
      "tags": {
        "addr:city": "Wildeshausen",
        "addr:housenumber": "2",
        "addr:postcode": "27793",
        "addr:street": "Westertor",
        "amenity": "restaurant",
        "cuisine": "turkish;kebab",
        "name": "Istanbul Kebap Haus",
        "opening_hours": "Mo-Su 11:00-22:00",
        "phone": "+49 4431 7482314",
        "wheelchair": "yes"
      }
    },
    {
      "type": "node",
      "id": 11170529913,
      "lat": 52.8996427,
      "lon": 8.2164605,
      "tags": {
        "addr:city": "Großenkneten",
        "addr:country": "DE",
        "addr:housenumber": "1a",
        "addr:postcode": "26197",
        "addr:street": "Zeppelinstraße",
        "addr:suburb": "Ahlhorn",
        "amenity": "restaurant",
        "cuisine": "italian",
        "name": "La Sila",
        "opening_hours": "We-Fr 17:00-24:00; Sa,Su,PH 10:00-13:00, 17:00-24:00; Mo,Tu off"
      }
    },
    {
      "type": "node",
      "id": 11398958775,
      "lat": 52.900294,
      "lon": 8.215401,
      "tags": {
        "amenity": "vending_machine",
        "check_date": "2024-11-10",
        "covered": "no",
        "indoor": "no",
        "opening_hours": "24/7",
        "operator": "Schwalbe",
        "payment:cash": "yes",
        "vending": "bicycle_tube"
      }
    },
    {
      "type": "node",
      "id": 11519442096,
      "lat": 52.8940812,
      "lon": 8.429981,
      "tags": {
        "addr:city": "Wildeshausen",
        "addr:housenumber": "3",
        "addr:postcode": "27793",
        "addr:street": "Bargloyer Straße",
        "name": "Weymann",
        "phone": "+49 4431 1735",
        "shop": "bakery",
        "website": "https://www.baeckerei-weymann.de"
      }
    },
    {
      "type": "node",
      "id": 11611233654,
      "lat": 52.8986525,
      "lon": 8.2413433,
      "tags": {
        "amenity": "vending_machine",
        "payment:cards": "yes",
        "payment:cash": "yes",
        "vending": "eggs;drinks;sweets;ice_cream"
      }
    },
    {
      "type": "node",
      "id": 11771879870,
      "lat": 52.9004141,
      "lon": 8.4277401,
      "tags": {
        "amenity": "shelter",
        "fireplace": "yes"
      }
    },
    {
      "type": "node",
      "id": 12043002673,
      "lat": 52.8635585,
      "lon": 8.3216945,
      "tags": {
        "amenity": "shelter"
      }
    },
    {
      "type": "node",
      "id": 12218662998,
      "lat": 52.9355533,
      "lon": 8.3784328,
      "tags": {
        "amenity": "toilets",
        "fee": "no",
        "wheelchair": "limited"
      }
    },
    {
      "type": "node",
      "id": 12329393378,
      "lat": 52.9002922,
      "lon": 8.2146792,
      "tags": {
        "amenity": "fast_food",
        "check_date": "2024-11-10",
        "name": "Hello Chicken",
        "outdoor_seating": "yes",
        "takeaway": "yes"
      }
    },
    {
      "type": "node",
      "id": 12800045012,
      "lat": 52.9137131,
      "lon": 8.4268988,
      "tags": {
        "amenity": "cafe",
        "brand": "Lavazza",
        "brand:wikidata": "Q543750",
        "cuisine": "coffee_shop",
        "name": "Lavazza",
        "takeaway": "yes"
      }
    },
    {
      "type": "node",
      "id": 12843800228,
      "lat": 52.8481076,
      "lon": 8.3252217,
      "tags": {
        "addr:housenumber": "4",
        "addr:street": "Hubertusmühle",
        "description": "This idyllic location provides modern guestrooms, beautiful vacation apartments by the lake and a spacious guest house for your relaxing stay. Contact us via phone or website.",
        "name": "Hof Hubbermann",
        "phone": "004944451517",
        "tourism": "guest_house",
        "website": "https://www.hof-hubbermann.de/"
      }
    },
    {
      "type": "way",
      "id": 43177596,
      "nodes": [
        540980262,
        540980265,
        296442158,
        1273331650,
        1273332138,
        540980272,
        540980262
      ],
      "tags": {
        "addr:city": "Wildeshausen",
        "addr:country": "DE",
        "addr:housenumber": "3",
        "addr:postcode": "27793",
        "addr:street": "Bargloyer Straße",
        "brand": "Netto Marken-Discount",
        "brand:wikidata": "Q879858",
        "brand:wikipedia": "de:Netto Marken-Discount",
        "building": "retail",
        "check_date": "2024-01-13",
        "contact:website": "https://www.netto-online.de/filialen/Wildeshausen/Bargloyer-Str-3/2312/",
        "name": "Netto Marken-Discount",
        "opening_hours": "Mo-Sa 07:00-22:00; PH,Su off",
        "operator": "Netto Marken-Discount AG & Co. KG",
        "shop": "supermarket",
        "wheelchair": "limited"
      }
    },
    {
      "type": "way",
      "id": 43210310,
      "nodes": [
        5967694530,
        541639704,
        8222801407,
        8222801406,
        8222801405,
        8210772757,
        8210772756,
        541639706,
        5967694530
      ],
      "tags": {
        "addr:city": "Wildeshausen",
        "addr:housenumber": "34c",
        "addr:postcode": "27793",
        "addr:street": "Harpstedter Straße",
        "brand": "ALDI Nord",
        "brand:wikidata": "Q41171373",
        "building": "retail",
        "building:levels": "1",
        "name": "ALDI Nord",
        "opening_hours": "Mo-Sa 08:00-21:00; Su,PH off",
        "roof:shape": "flat",
        "shop": "supermarket",
        "website": "https://www.aldi-nord.de/",
        "wheelchair": "yes"
      }
    },
    {
      "type": "way",
      "id": 43308103,
      "nodes": [
        544181267,
        544181272,
        544181277,
        544181281,
        544181267
      ],
      "tags": {
        "addr:city": "Wildeshausen",
        "addr:housenumber": "3",
        "addr:postcode": "27793",
        "addr:street": "Westerstraße",
        "amenity": "restaurant",
        "building": "yes",
        "indoor_seating": "yes",
        "name": "Zorbas",
        "opening_hours": "Mo-Su 12:00-23:00",
        "outdoor_seating": "yes"
      }
    },
    {
      "type": "way",
      "id": 43660718,
      "nodes": [
        552387605,
        552387609,
        552387613,
        552387616,
        552387621,
        552387623,
        552387626,
        552387628,
        552387636,
        552387639,
        552387643,
        552387605
      ],
      "tags": {
        "addr:city": "Wildeshausen",
        "addr:country": "DE",
        "addr:housenumber": "27",
        "addr:postcode": "27793",
        "addr:street": "Ahlhorner Straße",
        "amenity": "fuel",
        "brand": "Raiffeisen Hatten-Huntlosen eG",
        "building": "yes",
        "compressed_air": "yes",
        "fuel:diesel_B": "yes",
        "fuel:e10": "yes",
        "fuel:octane_95": "yes",
        "name": "Raiffeisen Hatten-Huntlosen",
        "opening_hours": "24/7",
        "operator": "Raiffeisen Hatten-Huntlosen eG",
        "phone": "+49 4431 6460",
        "self_service": "yes",
        "website": "http://www.rwghatten-huntlosen.de/"
      }
    },
    {
      "type": "way",
      "id": 43718376,
      "nodes": [
        1476453619,
        553310141,
        553310140,
        1476453545,
        1476453526,
        1476453529,
        1476453558,
        553310138,
        1476453598,
        1476453599,
        1476453605,
        1476453604,
        553310145,
        1476453624,
        1476453635,
        1476453632,
        1476453619
      ],
      "tags": {
        "addr:city": "Wildeshausen",
        "addr:housenumber": "19",
        "addr:postcode": "27793",
        "addr:street": "Immelmannstraße",
        "amenity": "fast_food",
        "brand": "McDonald's",
        "brand:wikidata": "Q38076",
        "brand:wikipedia": "en:McDonald's",
        "building": "yes",
        "cuisine": "burger",
        "delivery": "no",
        "drive_through": "yes",
        "internet_access": "wlan",
        "name": "McDonald's",
        "opening_hours": "24/7",
        "operator": "Systemgastronomie Christian Eckstein GmbH & Co. KG",
        "payment:google_pay": "yes",
        "phone": "+49 4431 92609",
        "smoking": "outside",
        "takeaway": "yes",
        "toilets:wheelchair": "yes",
        "website": "https://www.mcdonalds-eckstein.de/de/restaurants/wildeshausen",
        "wheelchair": "yes"
      }
    },
    {
      "type": "way",
      "id": 47292985,
      "nodes": [
        2005535292,
        602491836,
        602491835,
        602491834,
        602491833,
        602491832,
        602491839,
        2005535302,
        2005535313,
        2005535317,
        2005535314,
        2005535305,
        2005535292
      ],
      "tags": {
        "addr:city": "Wildeshausen",
        "addr:housenumber": "4",
        "addr:postcode": "27793",
        "addr:street": "Am Krandel",
        "amenity": "restaurant",
        "building": "yes",
        "cuisine": "greek",
        "name": "Kavala",
        "opening_hours": "Mo-Fr 17:00-23:00; Sa,Su 12:00-14:00,17:00-22:00",
        "phone": "+49 4431 955 7155",
        "website": "https://www.restaurant-kavala-wildeshausen.de/"
      }
    },
    {
      "type": "way",
      "id": 101348201,
      "nodes": [
        4665246032,
        1465196591,
        1465196593,
        1170264685,
        1170264774,
        1465196573,
        1465196566,
        1465196567,
        1465196570,
        1170264485,
        582280303,
        4665246031,
        4665246032
      ],
      "tags": {
        "addr:housenumber": "32",
        "addr:street": "Amtsfreiheit",
        "amenity": "restaurant",
        "building": "retail",
        "name": "Balkan-Restaurant",
        "opening_hours": "17:00-23:00, Su 12:00-14:30"
      }
    },
    {
      "type": "way",
      "id": 111752151,
      "nodes": [
        1272421892,
        1272421540,
        1272421770,
        1272421748,
        1272421902,
        1272421833,
        1272421470,
        1272421886,
        1272421892
      ],
      "tags": {
        "addr:city": "Wildeshausen",
        "addr:housenumber": "22",
        "addr:postcode": "27793",
        "addr:street": "Bahnhofstraße",
        "building": "yes",
        "name": "Wildeshauser Bahnhof",
        "tourism": "hotel"
      }
    },
    {
      "type": "way",
      "id": 116647516,
      "nodes": [
        1314532030,
        4641857097,
        4641857096,
        1314531970,
        1314532017,
        4641857118,
        4641857117,
        4641857115,
        4641857116,
        1314532046,
        4641857113,
        4641857114,
        4641857119,
        4641857092,
        4641857093,
        4641857120,
        1314532030
      ],
      "tags": {
        "addr:city": "Dünsen",
        "addr:country": "DE",
        "addr:housenumber": "1",
        "addr:postcode": "27243",
        "addr:street": "Vor der Linde",
        "amenity": "restaurant",
        "building": "yes",
        "name": "Restaurant Rogge Dünsen",
        "wheelchair": "yes"
      }
    },
    {
      "type": "way",
      "id": 128521685,
      "nodes": [
        1420144965,
        1420144935,
        2483289886,
        2483289883,
        1420144920,
        1420144939,
        1420144931,
        1420144947,
        1420144950,
        1420144954,
        1420144946,
        1420144960,
        1420144966,
        1420144956,
        1420144965
      ],
      "tags": {
        "addr:city": "Dötlingen",
        "addr:country": "DE",
        "addr:housenumber": "8",
        "addr:postcode": "27801",
        "addr:street": "Wildeshauser Straße",
        "addr:suburb": "Aschenstedt",
        "building": "commercial",
        "name": "Frerichs",
        "phone": "+49 4433500",
        "shop": "bicycle",
        "toilets:wheelchair": "no",
        "website": "http://www.auto-zweirad.de/",
        "wheelchair": "yes"
      }
    },
    {
      "type": "way",
      "id": 128521819,
      "nodes": [
        1420143799,
        1420143800,
        1420143774,
        1420143772,
        1420143752,
        1420143751,
        1420143778,
        1420143776,
        1420143795,
        1420143796,
        1420143799
      ],
      "tags": {
        "addr:city": "Dötlingen",
        "addr:housenumber": "11",
        "addr:postcode": "27801",
        "addr:street": "Hunteweg",
        "amenity": "restaurant",
        "building": "yes",
        "name": "Rastanlage Wildeshausen Süd"
      }
    },
    {
      "type": "way",
      "id": 128521831,
      "nodes": [
        1420143832,
        1420143821,
        1420143820,
        1420143834,
        1420143837,
        1420143832
      ],
      "tags": {
        "addr:city": "Dötlingen",
        "addr:country": "DE",
        "addr:housenumber": "13",
        "addr:postcode": "27801",
        "addr:street": "Hunteweg",
        "amenity": "fuel",
        "brand": "Aral",
        "building": "yes",
        "car_wash": "yes",
        "compressed_air": "yes",
        "contact:fax": "+49 4431 939229",
        "contact:phone": "+49 4431 93920",
        "contact:website": "https://www.aral.de/",
        "fuel:GTL_diesel": "yes",
        "fuel:HGV_diesel": "yes",
        "fuel:diesel": "yes",
        "fuel:e10": "yes",
        "fuel:octane_100": "yes",
        "fuel:octane_95": "yes",
        "name": "Aral - BAT Wildeshausen Süd",
        "opening_hours": "24/7",
        "operator": "Aral",
        "payment:credit_cards": "yes",
        "shop": "yes",
        "source": "Bing",
        "wheelchair": "yes"
      }
    },
    {
      "type": "way",
      "id": 133164336,
      "nodes": [
        1465196479,
        1465196478,
        7165083245,
        7165083251,
        1465196485,
        1465196492,
        1465196495,
        1465196501,
        1465196497,
        1465196499,
        7165083244,
        1465196486,
        1465196490,
        7165083241,
        1465196483,
        1465196480,
        1465196477,
        1465196469,
        1465196479
      ],
      "tags": {
        "addr:housenumber": "1",
        "addr:postcode": "27243",
        "addr:street": "Waldstraße",
        "brand": "Lidl",
        "brand:wikidata": "Q151954",
        "building": "retail",
        "check_date:opening_hours": "2025-07-13",
        "name": "Lidl",
        "opening_hours": "Mo-Sa 07:00-21:00; Su,PH off",
        "shop": "supermarket",
        "wheelchair": "yes"
      }
    },
    {
      "type": "way",
      "id": 134216624,
      "nodes": [
        1476453579,
        1476453373,
        1476453383,
        1476453408,
        1476453424,
        277468021,
        1476453492,
        9836951653,
        1476453596,
        1476453579
      ],
      "tags": {
        "addr:city": "Wildeshausen",
        "addr:housenumber": "5",
        "addr:postcode": "27793",
        "addr:street": "Westring",
        "brand": "Lidl",
        "brand:wikidata": "Q151954",
        "brand:wikipedia": "en:Lidl",
        "building": "retail",
        "name": "Lidl",
        "opening_hours": "Mo-Sa 07:00-21:00; Su,PH off",
        "shop": "supermarket",
        "website": "https://www.lidl.de",
        "wheelchair": "limited"
      }
    },
    {
      "type": "way",
      "id": 140896125,
      "nodes": [
        1542679345,
        1542679353,
        8210772745,
        8210772744,
        1542679350,
        2430263256,
        2430263257,
        2430263255,
        1542679345
      ],
      "tags": {
        "addr:city": "Wildeshausen",
        "addr:country": "DE",
        "addr:housenumber": "34",
        "addr:postcode": "27793",
        "addr:street": "Harpstedter Straße",
        "brand": "Netto Marken-Discount",
        "brand:wikidata": "Q879858",
        "brand:wikipedia": "de:Netto Marken-Discount",
        "building": "retail",
        "contact:website": "https://www.netto-online.de/filialen/Wildeshausen/Harpstedter-Str-34/5317/",
        "lastcheck": "2018-10-08",
        "name": "Netto Marken-Discount",
        "opening_hours": "Mo-Sa 07:00-21:00; Su,PH off",
        "operator": "Netto Marken-Discount AG & Co. KG",
        "shop": "supermarket",
        "wheelchair": "yes"
      }
    },
    {
      "type": "way",
      "id": 147977921,
      "nodes": [
        1610931136,
        1610931138,
        1610931141,
        1610931156,
        1610931159,
        1610931161,
        1610931160,
        1610931158,
        1610931155,
        1610931157,
        1610931132,
        3593391617,
        3593391616,
        3593391614,
        3593391615,
        1610336335,
        1610336341,
        1610931134,
        1610931136
      ],
      "tags": {
        "addr:city": "Dötlingen",
        "addr:country": "DE",
        "addr:housenumber": "20",
        "addr:postcode": "27801",
        "addr:street": "Heideweg",
        "amenity": "restaurant",
        "building:part": "yes",
        "cuisine": "german",
        "email": "reservierung@restaurant-lopshof.de",
        "name": "Lopshof",
        "opening_hours": "We-Th 18:00-22:30; Fr 15:00-22:30; Sa12:00-22:30; Su 09:00-22:30; Mo,Tu off",
        "operator": "Katja Radvan",
        "phone": "+49 4433 9699882",
        "website": "https://restaurant-lopshof.de",
        "wheelchair": "yes"
      }
    },
    {
      "type": "way",
      "id": 148988954,
      "nodes": [
        581959132,
        581959131,
        1620364402,
        1620364423,
        1620364087,
        1620364074,
        1620364009,
        1620363954,
        1620363858,
        1620363667,
        1620363727,
        1620363765,
        581959132
      ],
      "tags": {
        "addr:housenumber": "2",
        "addr:postcode": "27243",
        "addr:street": "Junkernkamp",
        "brand": "Netto Marken-Discount",
        "brand:wikidata": "Q879858",
        "building": "retail",
        "check_date:opening_hours": "2025-03-02",
        "name": "Netto Marken-Discount",
        "opening_hours": "Mo-Sa 07:00-21:00; Su,PH off",
        "shop": "supermarket",
        "toilets:wheelchair": "no",
        "website": "https://www.netto-online.de/filialen/harpstedt/junkernkamp-2/2186/",
        "wheelchair": "yes"
      }
    },
    {
      "type": "way",
      "id": 181894115,
      "nodes": [
        1922410973,
        1922410961,
        1922410988,
        1922410950,
        1922410979,
        1922410985,
        1922410965,
        1922410997,
        1923923783,
        1922410991,
        1922410973
      ],
      "tags": {
        "addr:housenumber": "4",
        "addr:postcode": "27243",
        "addr:street": "Amtsfreiheit",
        "building": "yes",
        "name": "Akzent Hotel Zur Wasserburg",
        "phone": "+49 4244 1008",
        "stars": "3",
        "tourism": "hotel",
        "website": "https://www.zur-wasserburg.de/",
        "wheelchair": "yes"
      }
    },
    {
      "type": "way",
      "id": 184225558,
      "nodes": [
        1946762737,
        1946762735,
        1946762732,
        1946762724,
        1946762728,
        1946762730,
        1946762738,
        1946762734,
        1946762737
      ],
      "tags": {
        "amenity": "bbq",
        "tourism": "wilderness_hut"
      }
    },
    {
      "type": "way",
      "id": 186139764,
      "nodes": [
        1968373961,
        1968373981,
        1968373948,
        1968374017,
        1968374013,
        1968374014,
        1968373955,
        1968374015,
        1968374009,
        1968374004,
        1968373953,
        1968373945,
        1968373984,
        1968373985,
        1968374011,
        1968373961
      ],
      "tags": {
        "addr:city": "Visbek",
        "addr:housenumber": "32",
        "addr:place": "Kokenmühle",
        "addr:postcode": "49429",
        "name": "Waldcampingplatz Kokenmühle",
        "operator": "Waldcampingplatz Kokenmühle GmbH",
        "tourism": "camp_site",
        "website": "https://www.waldcamp-kokenmuehle-gmbh.de/index.html"
      }
    },
    {
      "type": "way",
      "id": 189086119,
      "nodes": [
        1997335375,
        1157493773,
        1157494034,
        1997335376,
        1157493940,
        1997335374,
        1997335372,
        1997335371,
        1997335375
      ],
      "tags": {
        "addr:city": "Dötlingen",
        "addr:country": "DE",
        "addr:housenumber": "12",
        "addr:postcode": "27801",
        "addr:street": "Hunteweg",
        "amenity": "fuel",
        "brand": "Esso",
        "building": "yes",
        "compressed_air": "yes",
        "contact:fax": "+49 4431 939613",
        "contact:phone": "+49 4431 93960",
        "contact:website": "https://www.essofuelfinder.de",
        "fuel:GTL_diesel": "yes",
        "fuel:HGV_diesel": "yes",
        "fuel:diesel": "yes",
        "fuel:e10": "yes",
        "fuel:octane_100": "yes",
        "fuel:octane_95": "yes",
        "name": "Esso",
        "opening_hours": "24/7",
        "operator": "Esso",
        "payment:credit_cards": "yes",
        "payment:debit_cards": "yes",
        "payment:dkv": "yes",
        "shop": "yes",
        "source": "Bing"
      }
    },
    {
      "type": "way",
      "id": 189086123,
      "nodes": [
        1997335373,
        1157494263,
        1157494584,
        1157493886,
        1157494170,
        1157494481,
        1997335373
      ],
      "tags": {
        "amenity": "fuel",
        "building": "roof",
        "layer": "1"
      }
    },
    {
      "type": "way",
      "id": 189086125,
      "nodes": [
        1997335347,
        1997335346,
        1420143851,
        1420143850,
        1420143859,
        1420143861,
        1997335347
      ],
      "tags": {
        "amenity": "fuel",
        "building": "roof",
        "compressed_air": "yes",
        "layer": "1",
        "name": "Aral Tankstelle"
      }
    },
    {
      "type": "way",
      "id": 238363954,
      "nodes": [
        2462057115,
        2462057116,
        2462057117,
        2462057118,
        2462057115
      ],
      "tags": {
        "addr:city": "Visbek",
        "addr:housenumber": "19",
        "addr:postcode": "49429",
        "addr:street": "Siedenbögen",
        "building": "yes",
        "tourism": "guest_house"
      }
    },
    {
      "type": "way",
      "id": 242358485,
      "nodes": [
        2498454739,
        2498454854,
        2498454842,
        2498455130,
        2498454739
      ],
      "tags": {
        "addr:city": "Wildeshausen",
        "addr:housenumber": "15",
        "addr:postcode": "27793",
        "addr:street": "Dr.-Klingenberg-Straße",
        "amenity": "restaurant",
        "building": "yes",
        "cuisine": "german",
        "name": "Fillerberger Hof",
        "old_name": "Landhaus am Fillerberg",
        "opening_hours": "Tu-Fr 17:00-21:00",
        "operator": "Horst und Sascha Eggert",
        "tourism": "hotel"
      }
    },
    {
      "type": "way",
      "id": 245237073,
      "nodes": [
        2524681883,
        2524681906,
        2524681892,
        9886685109,
        9886685110,
        2524681905,
        2524681883
      ],
      "tags": {
        "addr:city": "Wildeshausen",
        "addr:housenumber": "60",
        "addr:place": "Kleinenkneten",
        "amenity": "restaurant",
        "building": "yes",
        "name": "Gaststätte Peter Sander"
      }
    },
    {
      "type": "way",
      "id": 250135144,
      "nodes": [
        2566352147,
        2566352116,
        2566352206,
        2566352248,
        4209303206,
        4209303208,
        2566352242,
        4209303217,
        2566352147
      ],
      "tags": {
        "addr:city": "Dötlingen",
        "addr:country": "DE",
        "addr:housenumber": "5",
        "addr:postcode": "27801",
        "addr:street": "Ostertor",
        "building": "commercial",
        "name": "Brockshus Konditorei-Bäckerei-Café",
        "opening_hours": "Mo-Fr 06:30-12:00,14:30-18:00;Sa 06:30-13:00",
        "operator": "Katja & Lutz Brockshus",
        "shop": "bakery",
        "website": "https://www.cafe-brockshus.de/"
      }
    },
    {
      "type": "way",
      "id": 250269107,
      "nodes": [
        2567568613,
        2567568558,
        2567568328,
        2567568411,
        8237928778,
        8237928777,
        2567568290,
        2567568362,
        2567568613
      ],
      "tags": {
        "addr:city": "Dötlingen",
        "addr:housenumber": "27",
        "addr:postcode": "27801",
        "addr:street": "Dorfring",
        "amenity": "restaurant",
        "building": "yes",
        "contact:phone": "+49 4433 918686",
        "contact:website": "http://www.santorini-doetlingen.de/",
        "cuisine": "greek;italian",
        "indoor_seating": "yes",
        "name": "Santorini",
        "opening_hours": "Mo-Th off; Fr-Su 17:00-22:00",
        "outdoor_seating": "yes"
      }
    },
    {
      "type": "way",
      "id": 250269140,
      "nodes": [
        2567568421,
        2567568537,
        2567568554,
        2567568340,
        2567568511,
        2567568421
      ],
      "tags": {
        "addr:city": "Dötlingen",
        "addr:housenumber": "2",
        "addr:street": "Dorfring",
        "amenity": "restaurant",
        "building": "yes",
        "contact:email": "hotel@doetlinger-hof.de",
        "contact:fax": "+49 4433 2569980",
        "contact:phone": "+49 4433 353",
        "cuisine": "regional",
        "name": "Dötlinger Hof",
        "outdoor_seating": "yes",
        "sport": "9pin",
        "tourism": "hotel",
        "website": "https://www.doetlinger-hof.de/",
        "website:menu": "https://doetlinger-hof.de/speisekarte/restaurantkarte",
        "wheelchair": "yes"
      }
    },
    {
      "type": "way",
      "id": 252174537,
      "nodes": [
        2582749990,
        2582749996,
        2582749993,
        2582749998,
        2582749997,
        2582749984,
        2583477623,
        2583477618,
        2583477621,
        2583477625,
        2582749990
      ],
      "tags": {
        "addr:city": "Großenkneten",
        "addr:housenumber": "2",
        "addr:postcode": "26197",
        "addr:street": "Cloppenburger Straße",
        "building": "commercial",
        "building:levels": "1",
        "email": "info@altes-posthaus-ahlhorn.de",
        "name": "Altes Posthaus Ahlhorn",
        "operator": "Joachim Leck",
        "roof:levels": "2",
        "tourism": "hotel",
        "website": "https://www.altes-posthaus-ahlhorn.de/",
        "wheelchair": "no"
      }
    },
    {
      "type": "way",
      "id": 252174539,
      "nodes": [
        2582749992,
        2582749991,
        2582749985,
        2582749986,
        2582749982,
        2582749983,
        2582749988,
        2582749987,
        2582749992
      ],
      "tags": {
        "amenity": "fast_food",
        "building": "commercial"
      }
    },
    {
      "type": "way",
      "id": 257827653,
      "nodes": [
        2632903971,
        2632903967,
        9972963554,
        2632903964,
        9972963555,
        2632903969,
        2632903971
      ],
      "tags": {
        "addr:city": "Großenkneten",
        "addr:country": "DE",
        "addr:housenumber": "6",
        "addr:postcode": "26197",
        "addr:street": "Wildeshauser Straße",
        "addr:suburb": "Ahlhorn",
        "amenity": "restaurant",
        "building": "yes",
        "contact:phone": "+49 4435 2914",
        "contact:website": "https://www.ahlhornerkrug.de",
        "cuisine": "mediterranean",
        "name": "Ahlhorner Krug",
        "opening_hours": "Mo,We-Sa 17:00-23:00; Su,PH 12:00-14:30,17:00-22:00; Tu off",
        "outdoor_seating": "yes",
        "tourism": "hotel",
        "wheelchair": "yes"
      }
    },
    {
      "type": "way",
      "id": 257830987,
      "nodes": [
        2632937980,
        2979946328,
        2979946327,
        2979946326,
        2979946325,
        2979946324,
        2979946330,
        2979946329,
        2979946332,
        2632937977,
        2632937991,
        2979946740,
        2979946738,
        2979946739,
        2979946736,
        2979946737,
        2979946734,
        2979946735,
        2979946733,
        2632937997,
        2632937980
      ],
      "tags": {
        "addr:city": "Großenkneten",
        "addr:housenumber": "8-10",
        "addr:postcode": "26197",
        "addr:street": "Wildeshauser Straße",
        "addr:suburb": "Ahlhorn",
        "building": "commercial",
        "check_date": "2025-06-06",
        "name": "Edeka Boekhoff",
        "opening_hours": "Mo-Sa 07:00-21:00; PH,Su off",
        "operator": "Otto und Thorsten Boekhoff",
        "payment:cash": "yes",
        "payment:credit_cards": "yes",
        "payment:debit_cards": "yes",
        "phone": "+49 4435 3233",
        "shop": "supermarket",
        "website": "https://www.edeka.de/",
        "wheelchair": "yes"
      }
    },
    {
      "type": "way",
      "id": 257830993,
      "nodes": [
        2632938027,
        2632938024,
        2632938022,
        2632938021,
        2632938019,
        2632938016,
        2632938012,
        2632938013,
        2632938007,
        2632938008,
        2632938010,
        2632938027
      ],
      "tags": {
        "addr:city": "Großenkneten",
        "addr:housenumber": "6a",
        "addr:street": "Wildeshauser Straße",
        "addr:suburb": "Ahlhorn",
        "brand": "Rewe",
        "brand:wikidata": "Q16968817",
        "brand:wikipedia": "en:REWE",
        "building": "commercial",
        "name": "Rewe",
        "opening_hours": "Mo-Sa 07:00-22:00",
        "phone": "+49 4435 9160509",
        "shop": "supermarket",
        "wheelchair": "yes"
      }
    },
    {
      "type": "way",
      "id": 257834067,
      "nodes": [
        2632965019,
        2632965022,
        2632965005,
        2632965007,
        2632965003,
        2632965000,
        2632965010,
        2632965008,
        2632965015,
        2632965019
      ],
      "tags": {
        "addr:city": "Großenkneten",
        "addr:housenumber": "2",
        "addr:postcode": "26197",
        "addr:street": "Vechtaer Straße",
        "addr:suburb": "Ahlhorn",
        "brand": "Netto Marken-Discount",
        "brand:wikidata": "Q879858",
        "building": "yes",
        "check_date": "2024-11-10",
        "name": "Netto Marken-Discount",
        "opening_hours": "Mo-Sa 07:00-22:00; Su,PH off",
        "payment:cash": "yes",
        "payment:credit_cards": "yes",
        "payment:debit_cards": "yes",
        "shop": "supermarket",
        "website": "https://www.netto-online.de/filialen/Ahlhorn/Vechtaer-Str2/7065/",
        "wheelchair": "yes"
      }
    },
    {
      "type": "way",
      "id": 275962880,
      "nodes": [
        2806110094,
        2806110103,
        2806110096,
        2806110097,
        477821037,
        2806110093,
        2806110094
      ],
      "tags": {
        "addr:city": "Großenkneten",
        "addr:country": "DE",
        "addr:housenumber": "17",
        "addr:postcode": "26197",
        "addr:street": "Wildeshauser Straße",
        "addr:suburb": "Ahlhorn",
        "amenity": "fuel",
        "brand": "Independent",
        "building": "yes",
        "building:levels": "1",
        "check_date": "2024-11-10",
        "compressed_air": "yes",
        "contact:phone": "+49 4435 1208",
        "contact:website": "http://albers-mineraloele.de/",
        "fuel:adblue": "yes",
        "fuel:diesel": "yes",
        "fuel:e10": "yes",
        "fuel:lpg": "yes",
        "fuel:octane_95": "yes",
        "fuel:octane_98": "yes",
        "name": "Albers",
        "opening_hours": "Mo-Fr 06:00-22:00; Sa 07:00-22:00; Su 08:00-22:00",
        "operator": "TS Ahlhorn GmbH",
        "payment:coins": "yes",
        "payment:dkv": "yes",
        "payment:girocard": "yes",
        "payment:mastercard": "yes",
        "payment:notes": "yes",
        "payment:visa": "yes",
        "self_service": "yes",
        "shop": "yes",
        "source": "survey (22.04.2018)",
        "wheelchair": "yes"
      }
    },
    {
      "type": "way",
      "id": 495906291,
      "nodes": [
        4876262306,
        4876262307,
        4876262308,
        4876262309,
        4876262310,
        4876262311,
        4876262306
      ],
      "tags": {
        "amenity": "shelter",
        "building": "public",
        "building:levels": "1",
        "shelter_type": "weather_shelter"
      }
    },
    {
      "type": "way",
      "id": 762473492,
      "nodes": [
        2558566351,
        2558566267,
        3190698765,
        1234603762,
        2558566347,
        2558566281,
        2558566319,
        3190698766,
        2558566277,
        2558566318,
        344366577,
        8244555986,
        344366578,
        344366579,
        7124341079,
        344366580,
        7124420385,
        7124341084,
        7124341082,
        7124341080,
        7124341081,
        7124420388,
        7124341078,
        7124420387,
        7124420386,
        2570067558,
        7124420390,
        349322884,
        1547362341,
        2558566351
      ],
      "tags": {
        "addr:city": "Dötlingen",
        "addr:housenumber": "18",
        "addr:postcode": "27801",
        "addr:street": "Zum Sande",
        "name": "Campingplatz Aschenbeck",
        "tourism": "camp_site",
        "website": "https://www.camping-aschenbeck.de/"
      }
    },
    {
      "type": "way",
      "id": 882270620,
      "nodes": [
        8204841516,
        8210794055,
        8204841513,
        8204841514,
        8213751708,
        8213751707,
        8213751709,
        12518183740,
        8213751710,
        8213751711,
        8204841515,
        8204841516
      ],
      "tags": {
        "addr:city": "Wildeshausen",
        "addr:country": "DE",
        "addr:housenumber": "7",
        "addr:postcode": "27793",
        "addr:street": "Huntetor",
        "brand": "REWE",
        "brand:wikidata": "Q16968817",
        "brand:wikipedia": "de:Rewe",
        "building": "yes",
        "name": "REWE",
        "opening_hours": "Mo-Sa 07:00-22:00; Su,PH off",
        "shop": "supermarket",
        "website": "https://www.rewe.de/marktseite/wildeshausen/541806/rewe-markt-huntetor-7/",
        "wheelchair": "yes"
      }
    },
    {
      "type": "way",
      "id": 884559204,
      "nodes": [
        8226001007,
        6101222614,
        1476453077,
        8226001006,
        8226001007
      ],
      "tags": {
        "addr:city": "Wildeshausen",
        "addr:country": "DE",
        "addr:housenumber": "61",
        "addr:postcode": "27793",
        "addr:street": "Bargloyer Straße",
        "building": "yes",
        "contact:phone": "+49 4431 9455571",
        "contact:website": "https://www.aleco.bio/",
        "name": "Aleco",
        "opening_hours": "Mo-Sa 08:00-20:00; Su,PH off",
        "operator": "Aleco GmbH",
        "organic": "only",
        "shop": "supermarket"
      }
    },
    {
      "type": "way",
      "id": 891742056,
      "nodes": [
        8288116346,
        8288116347,
        8288116348,
        8288116349,
        8288116346
      ],
      "tags": {
        "access": "yes",
        "amenity": "toilets",
        "building": "toilets",
        "changing_table": "no",
        "fee": "no",
        "unisex": "yes",
        "wheelchair": "yes"
      }
    },
    {
      "type": "way",
      "id": 891742061,
      "nodes": [
        8288116378,
        8288116379,
        8288116380,
        8288116381,
        8288116378
      ],
      "tags": {
        "access": "yes",
        "amenity": "toilets",
        "building": "toilets",
        "check_date:wheelchair": "2025-05-21",
        "fee": "no",
        "unisex": "yes",
        "wheelchair": "yes"
      }
    },
    {
      "type": "way",
      "id": 901246028,
      "nodes": [
        8372329273,
        8372329270,
        8372329271,
        8372329272,
        8372329273
      ],
      "tags": {
        "addr:city": "Wildeshausen",
        "addr:housenumber": "4",
        "addr:postcode": "27793",
        "addr:street": "Grüne Straße",
        "building": "house",
        "email": "info@wildeshauser-speicher.de",
        "name": "Wildeshauser Speicher",
        "phone": "+49 151 42845631",
        "tourism": "guest_house",
        "website": "https://www.wildeshauser-speicher.de"
      }
    },
    {
      "type": "way",
      "id": 913803776,
      "nodes": [
        8488583811,
        8488583808,
        8488583809,
        8488583810,
        8488583811
      ],
      "tags": {
        "amenity": "shelter"
      }
    },
    {
      "type": "way",
      "id": 1303425033,
      "nodes": [
        12071184836,
        12071184837,
        12071184838,
        12071184839,
        12071184840,
        12071184841,
        12071184842,
        12071184843,
        12071184844,
        12071184845,
        12071184846,
        12071184828,
        12071184831,
        12071184832,
        12071184833,
        12071184834,
        12071184835,
        12071184829,
        12071184830,
        12071184836
      ],
      "tags": {
        "amenity": "shelter",
        "building": "yes"
      }
    },
    {
      "type": "way",
      "id": 1367430172,
      "nodes": [
        12663646938,
        12663646939,
        12663646940,
        12663646941,
        12663646938
      ],
      "tags": {
        "amenity": "shelter",
        "bench": "yes",
        "building": "yes"
      }
    },
    {
      "type": "node",
      "id": 12663646938,
      "lat": 52.8632709,
      "lon": 8.2706039
    },
    {
      "type": "node",
      "id": 12663646941,
      "lat": 52.8632511,
      "lon": 8.2706096
    },
    {
      "type": "node",
      "id": 12663646939,
      "lat": 52.8632762,
      "lon": 8.2706535
    },
    {
      "type": "node",
      "id": 12663646940,
      "lat": 52.8632563,
      "lon": 8.2706593
    },
    {
      "type": "node",
      "id": 2462057115,
      "lat": 52.8606466,
      "lon": 8.3036906
    },
    {
      "type": "node",
      "id": 2462057116,
      "lat": 52.8606237,
      "lon": 8.3035517
    },
    {
      "type": "node",
      "id": 2462057117,
      "lat": 52.860699,
      "lon": 8.3035177
    },
    {
      "type": "node",
      "id": 2462057118,
      "lat": 52.8607219,
      "lon": 8.3036566
    },
    {
      "type": "node",
      "id": 2582749982,
      "lat": 52.9004715,
      "lon": 8.2087635
    },
    {
      "type": "node",
      "id": 2582749983,
      "lat": 52.9004717,
      "lon": 8.2086828
    },
    {
      "type": "node",
      "id": 2582749984,
      "lat": 52.9004834,
      "lon": 8.209493
    },
    {
      "type": "node",
      "id": 2582749985,
      "lat": 52.9004923,
      "lon": 8.2087765
    },
    {
      "type": "node",
      "id": 2582749986,
      "lat": 52.9004924,
      "lon": 8.2087636
    },
    {
      "type": "node",
      "id": 2582749987,
      "lat": 52.9004934,
      "lon": 8.2086702
    },
    {
      "type": "node",
      "id": 2582749988,
      "lat": 52.9004934,
      "lon": 8.208683
    },
    {
      "type": "node",
      "id": 2582749990,
      "lat": 52.9004996,
      "lon": 8.2089235
    },
    {
      "type": "node",
      "id": 2582749991,
      "lat": 52.9005617,
      "lon": 8.2087771
    },
    {
      "type": "node",
      "id": 2582749992,
      "lat": 52.9005621,
      "lon": 8.2086707
    },
    {
      "type": "node",
      "id": 2582749993,
      "lat": 52.9005791,
      "lon": 8.2092883
    },
    {
      "type": "node",
      "id": 2582749996,
      "lat": 52.9005891,
      "lon": 8.2089303
    },
    {
      "type": "node",
      "id": 2582749997,
      "lat": 52.9007646,
      "lon": 8.2095146
    },
    {
      "type": "node",
      "id": 2582749998,
      "lat": 52.9007706,
      "lon": 8.2093029
    },
    {
      "type": "node",
      "id": 2583477618,
      "lat": 52.9004814,
      "lon": 8.2093495
    },
    {
      "type": "node",
      "id": 2583477621,
      "lat": 52.9004852,
      "lon": 8.2092109
    },
    {
      "type": "node",
      "id": 2583477623,
      "lat": 52.9004874,
      "lon": 8.2093499
    },
    {
      "type": "node",
      "id": 2583477625,
      "lat": 52.9004916,
      "lon": 8.2092114
    },
    {
      "type": "node",
      "id": 2632965000,
      "lat": 52.8993397,
      "lon": 8.2103331
    },
    {
      "type": "node",
      "id": 2632965003,
      "lat": 52.8993469,
      "lon": 8.2099146
    },
    {
      "type": "node",
      "id": 2632965005,
      "lat": 52.899467,
      "lon": 8.2099992
    },
    {
      "type": "node",
      "id": 2632965007,
      "lat": 52.8994683,
      "lon": 8.2099203
    },
    {
      "type": "node",
      "id": 2632965008,
      "lat": 52.8994909,
      "lon": 8.2104077
    },
    {
      "type": "node",
      "id": 2632965010,
      "lat": 52.8994921,
      "lon": 8.2103402
    },
    {
      "type": "node",
      "id": 2632965015,
      "lat": 52.8996821,
      "lon": 8.2104167
    },
    {
      "type": "node",
      "id": 2632965019,
      "lat": 52.8997605,
      "lon": 8.2104203
    },
    {
      "type": "node",
      "id": 2632965022,
      "lat": 52.8997675,
      "lon": 8.2100132
    },
    {
      "type": "node",
      "id": 477821037,
      "lat": 52.9000457,
      "lon": 8.215287
    },
    {
      "type": "node",
      "id": 2632903964,
      "lat": 52.9003274,
      "lon": 8.2132086
    },
    {
      "type": "node",
      "id": 2632903967,
      "lat": 52.9003366,
      "lon": 8.2127818
    },
    {
      "type": "node",
      "id": 2632903969,
      "lat": 52.9004489,
      "lon": 8.2132158
    },
    {
      "type": "node",
      "id": 2632903971,
      "lat": 52.9004581,
      "lon": 8.212789
    },
    {
      "type": "node",
      "id": 2632937977,
      "lat": 52.9004549,
      "lon": 8.2145379
    },
    {
      "type": "node",
      "id": 2632937980,
      "lat": 52.9003528,
      "lon": 8.2137607
    },
    {
      "type": "node",
      "id": 2632937991,
      "lat": 52.9006389,
      "lon": 8.2145439
    },
    {
      "type": "node",
      "id": 2632937997,
      "lat": 52.9005383,
      "lon": 8.2137668
    },
    {
      "type": "node",
      "id": 2632938007,
      "lat": 52.9011253,
      "lon": 8.2133257
    },
    {
      "type": "node",
      "id": 2632938008,
      "lat": 52.9011316,
      "lon": 8.2131276
    },
    {
      "type": "node",
      "id": 2632938010,
      "lat": 52.9011378,
      "lon": 8.2129299
    },
    {
      "type": "node",
      "id": 2632938012,
      "lat": 52.901158,
      "lon": 8.2139241
    },
    {
      "type": "node",
      "id": 2632938013,
      "lat": 52.9011767,
      "lon": 8.2133301
    },
    {
      "type": "node",
      "id": 2632938016,
      "lat": 52.9013996,
      "lon": 8.213945
    },
    {
      "type": "node",
      "id": 2632938019,
      "lat": 52.9014082,
      "lon": 8.2136703
    },
    {
      "type": "node",
      "id": 2632938021,
      "lat": 52.9014641,
      "lon": 8.2136752
    },
    {
      "type": "node",
      "id": 2632938022,
      "lat": 52.9014717,
      "lon": 8.2134335
    },
    {
      "type": "node",
      "id": 2632938024,
      "lat": 52.9015211,
      "lon": 8.2134377
    },
    {
      "type": "node",
      "id": 2632938027,
      "lat": 52.9015361,
      "lon": 8.2129644
    },
    {
      "type": "node",
      "id": 2806110093,
      "lat": 52.9000387,
      "lon": 8.2152865
    },
    {
      "type": "node",
      "id": 2806110094,
      "lat": 52.8999265,
      "lon": 8.2152786
    },
    {
      "type": "node",
      "id": 2806110096,
      "lat": 52.8999216,
      "lon": 8.2154686
    },
    {
      "type": "node",
      "id": 2806110097,
      "lat": 52.9000409,
      "lon": 8.215477
    },
    {
      "type": "node",
      "id": 2806110103,
      "lat": 52.8999222,
      "lon": 8.2154435
    },
    {
      "type": "node",
      "id": 2979946324,
      "lat": 52.900308,
      "lon": 8.2142495
    },
    {
      "type": "node",
      "id": 2979946325,
      "lat": 52.9003109,
      "lon": 8.214004
    },
    {
      "type": "node",
      "id": 2979946326,
      "lat": 52.900324,
      "lon": 8.2140044
    },
    {
      "type": "node",
      "id": 2979946327,
      "lat": 52.9003247,
      "lon": 8.2139429
    },
    {
      "type": "node",
      "id": 2979946328,
      "lat": 52.9003506,
      "lon": 8.2139437
    },
    {
      "type": "node",
      "id": 2979946329,
      "lat": 52.9003549,
      "lon": 8.2144747
    },
    {
      "type": "node",
      "id": 2979946330,
      "lat": 52.9003576,
      "lon": 8.2142511
    },
    {
      "type": "node",
      "id": 2979946332,
      "lat": 52.9004556,
      "lon": 8.214478
    },
    {
      "type": "node",
      "id": 2979946733,
      "lat": 52.9005376,
      "lon": 8.2138187
    },
    {
      "type": "node",
      "id": 2979946734,
      "lat": 52.900556,
      "lon": 8.2138639
    },
    {
      "type": "node",
      "id": 2979946735,
      "lat": 52.9005565,
      "lon": 8.2138193
    },
    {
      "type": "node",
      "id": 2979946736,
      "lat": 52.9005827,
      "lon": 8.2139132
    },
    {
      "type": "node",
      "id": 2979946737,
      "lat": 52.9005833,
      "lon": 8.2138648
    },
    {
      "type": "node",
      "id": 2979946738,
      "lat": 52.9006197,
      "lon": 8.2142819
    },
    {
      "type": "node",
      "id": 2979946739,
      "lat": 52.9006241,
      "lon": 8.2139146
    },
    {
      "type": "node",
      "id": 2979946740,
      "lat": 52.900642,
      "lon": 8.2142826
    },
    {
      "type": "node",
      "id": 9972963554,
      "lat": 52.9003316,
      "lon": 8.2130137
    },
    {
      "type": "node",
      "id": 9972963555,
      "lat": 52.9003829,
      "lon": 8.2132119
    },
    {
      "type": "node",
      "id": 1968373945,
      "lat": 52.8706519,
      "lon": 8.2637568
    },
    {
      "type": "node",
      "id": 1968373948,
      "lat": 52.8704288,
      "lon": 8.2617038
    },
    {
      "type": "node",
      "id": 1968373953,
      "lat": 52.8710153,
      "lon": 8.2635701
    },
    {
      "type": "node",
      "id": 1968373961,
      "lat": 52.8697282,
      "lon": 8.2633276
    },
    {
      "type": "node",
      "id": 1968373981,
      "lat": 52.8699007,
      "lon": 8.261729
    },
    {
      "type": "node",
      "id": 1968374013,
      "lat": 52.8708203,
      "lon": 8.2614184
    },
    {
      "type": "node",
      "id": 1968374014,
      "lat": 52.8711636,
      "lon": 8.2614077
    },
    {
      "type": "node",
      "id": 1968374017,
      "lat": 52.8707167,
      "lon": 8.26189
    },
    {
      "type": "node",
      "id": 1968373984,
      "lat": 52.8706001,
      "lon": 8.2641323
    },
    {
      "type": "node",
      "id": 1968373985,
      "lat": 52.8700367,
      "lon": 8.2643147
    },
    {
      "type": "node",
      "id": 1968374011,
      "lat": 52.8697501,
      "lon": 8.2642905
    },
    {
      "type": "node",
      "id": 1968373955,
      "lat": 52.8712995,
      "lon": 8.2612682
    },
    {
      "type": "node",
      "id": 1968374004,
      "lat": 52.8713578,
      "lon": 8.2632954
    },
    {
      "type": "node",
      "id": 1968374009,
      "lat": 52.8717982,
      "lon": 8.2632096
    },
    {
      "type": "node",
      "id": 1968374015,
      "lat": 52.8720637,
      "lon": 8.2616545
    },
    {
      "type": "node",
      "id": 8288116378,
      "lat": 52.8832266,
      "lon": 8.2776702
    },
    {
      "type": "node",
      "id": 8288116379,
      "lat": 52.883176,
      "lon": 8.2774462
    },
    {
      "type": "node",
      "id": 8288116380,
      "lat": 52.883115,
      "lon": 8.277484
    },
    {
      "type": "node",
      "id": 8288116381,
      "lat": 52.8831656,
      "lon": 8.277708
    },
    {
      "type": "node",
      "id": 8288116346,
      "lat": 52.8860875,
      "lon": 8.2824777
    },
    {
      "type": "node",
      "id": 8288116347,
      "lat": 52.8861251,
      "lon": 8.2827144
    },
    {
      "type": "node",
      "id": 8288116348,
      "lat": 52.8860753,
      "lon": 8.2827361
    },
    {
      "type": "node",
      "id": 8288116349,
      "lat": 52.8860377,
      "lon": 8.2824994
    },
    {
      "type": "node",
      "id": 4876262306,
      "lat": 52.8688514,
      "lon": 8.3516618
    },
    {
      "type": "node",
      "id": 4876262307,
      "lat": 52.8688831,
      "lon": 8.3516776
    },
    {
      "type": "node",
      "id": 4876262308,
      "lat": 52.8688906,
      "lon": 8.3517308
    },
    {
      "type": "node",
      "id": 4876262309,
      "lat": 52.8688666,
      "lon": 8.3517683
    },
    {
      "type": "node",
      "id": 4876262310,
      "lat": 52.8688349,
      "lon": 8.3517525
    },
    {
      "type": "node",
      "id": 4876262311,
      "lat": 52.8688274,
      "lon": 8.3516992
    },
    {
      "type": "node",
      "id": 8488583808,
      "lat": 52.881974,
      "lon": 8.3540741
    },
    {
      "type": "node",
      "id": 8488583809,
      "lat": 52.881974,
      "lon": 8.3541109
    },
    {
      "type": "node",
      "id": 8488583810,
      "lat": 52.8819566,
      "lon": 8.3541109
    },
    {
      "type": "node",
      "id": 8488583811,
      "lat": 52.8819566,
      "lon": 8.3540741
    },
    {
      "type": "node",
      "id": 2567568290,
      "lat": 52.935842,
      "lon": 8.3787868
    },
    {
      "type": "node",
      "id": 2567568328,
      "lat": 52.9359681,
      "lon": 8.37875
    },
    {
      "type": "node",
      "id": 2567568362,
      "lat": 52.9358919,
      "lon": 8.3785964
    },
    {
      "type": "node",
      "id": 2567568411,
      "lat": 52.9359567,
      "lon": 8.3787935
    },
    {
      "type": "node",
      "id": 2567568558,
      "lat": 52.9360076,
      "lon": 8.3787786
    },
    {
      "type": "node",
      "id": 2567568613,
      "lat": 52.9360294,
      "lon": 8.3786956
    },
    {
      "type": "node",
      "id": 8237928777,
      "lat": 52.9358964,
      "lon": 8.378826
    },
    {
      "type": "node",
      "id": 8237928778,
      "lat": 52.9359131,
      "lon": 8.378762
    },
    {
      "type": "node",
      "id": 1610336335,
      "lat": 52.9307733,
      "lon": 8.3841748
    },
    {
      "type": "node",
      "id": 1610336341,
      "lat": 52.9308376,
      "lon": 8.3841096
    },
    {
      "type": "node",
      "id": 1610931132,
      "lat": 52.9308298,
      "lon": 8.3843347
    },
    {
      "type": "node",
      "id": 1610931134,
      "lat": 52.9309008,
      "lon": 8.3840419
    },
    {
      "type": "node",
      "id": 1610931136,
      "lat": 52.9309048,
      "lon": 8.3840471
    },
    {
      "type": "node",
      "id": 1610931138,
      "lat": 52.9309208,
      "lon": 8.3840364
    },
    {
      "type": "node",
      "id": 1610931141,
      "lat": 52.9309396,
      "lon": 8.3840339
    },
    {
      "type": "node",
      "id": 1610931155,
      "lat": 52.9309567,
      "lon": 8.3841956
    },
    {
      "type": "node",
      "id": 1610931156,
      "lat": 52.9309585,
      "lon": 8.384043
    },
    {
      "type": "node",
      "id": 1610931157,
      "lat": 52.9309607,
      "lon": 8.384201
    },
    {
      "type": "node",
      "id": 1610931158,
      "lat": 52.9309754,
      "lon": 8.3841698
    },
    {
      "type": "node",
      "id": 1610931159,
      "lat": 52.9309769,
      "lon": 8.3840701
    },
    {
      "type": "node",
      "id": 1610931160,
      "lat": 52.9309838,
      "lon": 8.384141
    },
    {
      "type": "node",
      "id": 1610931161,
      "lat": 52.9309848,
      "lon": 8.3841039
    },
    {
      "type": "node",
      "id": 2566352116,
      "lat": 52.9360134,
      "lon": 8.3858328
    },
    {
      "type": "node",
      "id": 2566352147,
      "lat": 52.9360525,
      "lon": 8.3860006
    },
    {
      "type": "node",
      "id": 2566352206,
      "lat": 52.9361018,
      "lon": 8.385776
    },
    {
      "type": "node",
      "id": 2566352242,
      "lat": 52.9362236,
      "lon": 8.3856782
    },
    {
      "type": "node",
      "id": 2566352248,
      "lat": 52.9360765,
      "lon": 8.3856671
    },
    {
      "type": "node",
      "id": 2567568340,
      "lat": 52.9355632,
      "lon": 8.383625
    },
    {
      "type": "node",
      "id": 2567568421,
      "lat": 52.93546,
      "lon": 8.3837699
    },
    {
      "type": "node",
      "id": 2567568511,
      "lat": 52.935575,
      "lon": 8.3836587
    },
    {
      "type": "node",
      "id": 2567568537,
      "lat": 52.9353388,
      "lon": 8.3834246
    },
    {
      "type": "node",
      "id": 2567568554,
      "lat": 52.9354538,
      "lon": 8.3833135
    },
    {
      "type": "node",
      "id": 3593391614,
      "lat": 52.9307734,
      "lon": 8.3842362
    },
    {
      "type": "node",
      "id": 3593391615,
      "lat": 52.9307914,
      "lon": 8.3842208
    },
    {
      "type": "node",
      "id": 3593391616,
      "lat": 52.9308028,
      "lon": 8.384317
    },
    {
      "type": "node",
      "id": 3593391617,
      "lat": 52.9308174,
      "lon": 8.3842999
    },
    {
      "type": "node",
      "id": 4209303206,
      "lat": 52.9361468,
      "lon": 8.3856219
    },
    {
      "type": "node",
      "id": 4209303208,
      "lat": 52.9361682,
      "lon": 8.3857138
    },
    {
      "type": "node",
      "id": 4209303217,
      "lat": 52.9362667,
      "lon": 8.3858631
    },
    {
      "type": "node",
      "id": 2524681883,
      "lat": 52.8711613,
      "lon": 8.4284771
    },
    {
      "type": "node",
      "id": 2524681892,
      "lat": 52.8710315,
      "lon": 8.4280766
    },
    {
      "type": "node",
      "id": 2524681906,
      "lat": 52.8709847,
      "lon": 8.4284088
    },
    {
      "type": "node",
      "id": 9886685109,
      "lat": 52.8711471,
      "lon": 8.4281213
    },
    {
      "type": "node",
      "id": 9886685110,
      "lat": 52.8711202,
      "lon": 8.4283117
    },
    {
      "type": "node",
      "id": 2524681905,
      "lat": 52.8711813,
      "lon": 8.4283354
    },
    {
      "type": "node",
      "id": 1476453077,
      "lat": 52.890549,
      "lon": 8.4172946
    },
    {
      "type": "node",
      "id": 6101222614,
      "lat": 52.8907383,
      "lon": 8.4171202
    },
    {
      "type": "node",
      "id": 8226001006,
      "lat": 52.8903612,
      "lon": 8.4167343
    },
    {
      "type": "node",
      "id": 8226001007,
      "lat": 52.8905506,
      "lon": 8.41656
    },
    {
      "type": "node",
      "id": 277468021,
      "lat": 52.89573,
      "lon": 8.4144889
    },
    {
      "type": "node",
      "id": 553310138,
      "lat": 52.896073,
      "lon": 8.4123641
    },
    {
      "type": "node",
      "id": 553310140,
      "lat": 52.8960575,
      "lon": 8.4125991
    },
    {
      "type": "node",
      "id": 553310141,
      "lat": 52.8962831,
      "lon": 8.4126399
    },
    {
      "type": "node",
      "id": 553310145,
      "lat": 52.8962985,
      "lon": 8.4124049
    },
    {
      "type": "node",
      "id": 1476453383,
      "lat": 52.8956046,
      "lon": 8.4147362
    },
    {
      "type": "node",
      "id": 1476453408,
      "lat": 52.8956502,
      "lon": 8.4147454
    },
    {
      "type": "node",
      "id": 1476453424,
      "lat": 52.89567,
      "lon": 8.4144767
    },
    {
      "type": "node",
      "id": 1476453492,
      "lat": 52.8957359,
      "lon": 8.4144092
    },
    {
      "type": "node",
      "id": 1476453526,
      "lat": 52.8960017,
      "lon": 8.4125718
    },
    {
      "type": "node",
      "id": 1476453529,
      "lat": 52.8960154,
      "lon": 8.4123641
    },
    {
      "type": "node",
      "id": 1476453545,
      "lat": 52.8960586,
      "lon": 8.412582
    },
    {
      "type": "node",
      "id": 1476453558,
      "lat": 52.8960723,
      "lon": 8.4123744
    },
    {
      "type": "node",
      "id": 1476453596,
      "lat": 52.8961776,
      "lon": 8.4144989
    },
    {
      "type": "node",
      "id": 1476453598,
      "lat": 52.8961721,
      "lon": 8.412382
    },
    {
      "type": "node",
      "id": 1476453599,
      "lat": 52.8961756,
      "lon": 8.4123292
    },
    {
      "type": "node",
      "id": 1476453604,
      "lat": 52.8962272,
      "lon": 8.412392
    },
    {
      "type": "node",
      "id": 1476453605,
      "lat": 52.8962307,
      "lon": 8.4123391
    },
    {
      "type": "node",
      "id": 1476453619,
      "lat": 52.8962836,
      "lon": 8.4126311
    },
    {
      "type": "node",
      "id": 1476453624,
      "lat": 52.8962904,
      "lon": 8.4125287
    },
    {
      "type": "node",
      "id": 1476453632,
      "lat": 52.8963276,
      "lon": 8.412639
    },
    {
      "type": "node",
      "id": 1476453635,
      "lat": 52.8963343,
      "lon": 8.4125366
    },
    {
      "type": "node",
      "id": 9836951653,
      "lat": 52.8961309,
      "lon": 8.4144894
    },
    {
      "type": "node",
      "id": 1476453373,
      "lat": 52.8955958,
      "lon": 8.4148549
    },
    {
      "type": "node",
      "id": 1476453579,
      "lat": 52.8961431,
      "lon": 8.414966
    },
    {
      "type": "node",
      "id": 552387605,
      "lat": 52.8954989,
      "lon": 8.4266427
    },
    {
      "type": "node",
      "id": 552387609,
      "lat": 52.8954517,
      "lon": 8.4266861
    },
    {
      "type": "node",
      "id": 552387613,
      "lat": 52.8954715,
      "lon": 8.4267778
    },
    {
      "type": "node",
      "id": 552387616,
      "lat": 52.8955744,
      "lon": 8.4268344
    },
    {
      "type": "node",
      "id": 552387621,
      "lat": 52.8956306,
      "lon": 8.4268569
    },
    {
      "type": "node",
      "id": 552387623,
      "lat": 52.8956549,
      "lon": 8.4267301
    },
    {
      "type": "node",
      "id": 552387626,
      "lat": 52.8957577,
      "lon": 8.4267862
    },
    {
      "type": "node",
      "id": 552387628,
      "lat": 52.8958075,
      "lon": 8.4265425
    },
    {
      "type": "node",
      "id": 552387636,
      "lat": 52.8956107,
      "lon": 8.4264395
    },
    {
      "type": "node",
      "id": 552387639,
      "lat": 52.8955589,
      "lon": 8.426491
    },
    {
      "type": "node",
      "id": 552387643,
      "lat": 52.8955278,
      "lon": 8.4265769
    },
    {
      "type": "node",
      "id": 602491832,
      "lat": 52.8967821,
      "lon": 8.4267694
    },
    {
      "type": "node",
      "id": 602491833,
      "lat": 52.896738,
      "lon": 8.4268813
    },
    {
      "type": "node",
      "id": 602491834,
      "lat": 52.8967834,
      "lon": 8.4269305
    },
    {
      "type": "node",
      "id": 602491835,
      "lat": 52.8967408,
      "lon": 8.4270384
    },
    {
      "type": "node",
      "id": 602491836,
      "lat": 52.8967994,
      "lon": 8.4271018
    },
    {
      "type": "node",
      "id": 602491839,
      "lat": 52.8968962,
      "lon": 8.426893
    },
    {
      "type": "node",
      "id": 2005535292,
      "lat": 52.8968241,
      "lon": 8.4270394
    },
    {
      "type": "node",
      "id": 2005535302,
      "lat": 52.8968691,
      "lon": 8.4269618
    },
    {
      "type": "node",
      "id": 2005535305,
      "lat": 52.8968765,
      "lon": 8.4270962
    },
    {
      "type": "node",
      "id": 2005535313,
      "lat": 52.8969019,
      "lon": 8.4269973
    },
    {
      "type": "node",
      "id": 2005535314,
      "lat": 52.8969047,
      "lon": 8.4270247
    },
    {
      "type": "node",
      "id": 2005535317,
      "lat": 52.8969114,
      "lon": 8.4270077
    },
    {
      "type": "node",
      "id": 296442158,
      "lat": 52.8936133,
      "lon": 8.429902
    },
    {
      "type": "node",
      "id": 540980262,
      "lat": 52.8941777,
      "lon": 8.4297334
    },
    {
      "type": "node",
      "id": 540980265,
      "lat": 52.8936955,
      "lon": 8.4294772
    },
    {
      "type": "node",
      "id": 540980272,
      "lat": 52.8941082,
      "lon": 8.4300924
    },
    {
      "type": "node",
      "id": 1273331650,
      "lat": 52.8940734,
      "lon": 8.4301466
    },
    {
      "type": "node",
      "id": 1273332138,
      "lat": 52.8940862,
      "lon": 8.4300807
    },
    {
      "type": "node",
      "id": 544181267,
      "lat": 52.8973078,
      "lon": 8.4367369
    },
    {
      "type": "node",
      "id": 544181272,
      "lat": 52.8973754,
      "lon": 8.4367582
    },
    {
      "type": "node",
      "id": 544181281,
      "lat": 52.8973337,
      "lon": 8.4365115
    },
    {
      "type": "node",
      "id": 1272421470,
      "lat": 52.8980996,
      "lon": 8.4317131
    },
    {
      "type": "node",
      "id": 1272421540,
      "lat": 52.8978449,
      "lon": 8.4318148
    },
    {
      "type": "node",
      "id": 1272421748,
      "lat": 52.8983506,
      "lon": 8.4318949
    },
    {
      "type": "node",
      "id": 1272421770,
      "lat": 52.8983241,
      "lon": 8.432046
    },
    {
      "type": "node",
      "id": 1272421833,
      "lat": 52.8981876,
      "lon": 8.4317555
    },
    {
      "type": "node",
      "id": 1272421886,
      "lat": 52.8980916,
      "lon": 8.4317585
    },
    {
      "type": "node",
      "id": 1272421892,
      "lat": 52.8978732,
      "lon": 8.4316532
    },
    {
      "type": "node",
      "id": 1272421902,
      "lat": 52.8981778,
      "lon": 8.4318115
    },
    {
      "type": "node",
      "id": 544181277,
      "lat": 52.8974013,
      "lon": 8.4365328
    },
    {
      "type": "node",
      "id": 8372329270,
      "lat": 52.8979351,
      "lon": 8.4371028
    },
    {
      "type": "node",
      "id": 8372329271,
      "lat": 52.8978566,
      "lon": 8.4370921
    },
    {
      "type": "node",
      "id": 8372329272,
      "lat": 52.8978606,
      "lon": 8.4370125
    },
    {
      "type": "node",
      "id": 8372329273,
      "lat": 52.897939,
      "lon": 8.4370233
    },
    {
      "type": "node",
      "id": 1157493773,
      "lat": 52.9149923,
      "lon": 8.4261231
    },
    {
      "type": "node",
      "id": 1157493886,
      "lat": 52.9147306,
      "lon": 8.4265896
    },
    {
      "type": "node",
      "id": 1157493940,
      "lat": 52.9149763,
      "lon": 8.4263964
    },
    {
      "type": "node",
      "id": 1157494034,
      "lat": 52.9150452,
      "lon": 8.426122
    },
    {
      "type": "node",
      "id": 1157494170,
      "lat": 52.9147274,
      "lon": 8.4262793
    },
    {
      "type": "node",
      "id": 1157494263,
      "lat": 52.9148148,
      "lon": 8.4264284
    },
    {
      "type": "node",
      "id": 1157494481,
      "lat": 52.9149198,
      "lon": 8.4262738
    },
    {
      "type": "node",
      "id": 1157494584,
      "lat": 52.9148165,
      "lon": 8.4265863
    },
    {
      "type": "node",
      "id": 1420143751,
      "lat": 52.9133282,
      "lon": 8.4264019
    },
    {
      "type": "node",
      "id": 1420143752,
      "lat": 52.9133294,
      "lon": 8.4265211
    },
    {
      "type": "node",
      "id": 1420143772,
      "lat": 52.9135412,
      "lon": 8.4265153
    },
    {
      "type": "node",
      "id": 1420143774,
      "lat": 52.9135487,
      "lon": 8.4272741
    },
    {
      "type": "node",
      "id": 1420143776,
      "lat": 52.913605,
      "lon": 8.4263651
    },
    {
      "type": "node",
      "id": 1420143778,
      "lat": 52.9136053,
      "lon": 8.4263944
    },
    {
      "type": "node",
      "id": 1420143795,
      "lat": 52.9137238,
      "lon": 8.4263619
    },
    {
      "type": "node",
      "id": 1420143796,
      "lat": 52.9137268,
      "lon": 8.4266659
    },
    {
      "type": "node",
      "id": 1420143799,
      "lat": 52.913749,
      "lon": 8.4266653
    },
    {
      "type": "node",
      "id": 1420143800,
      "lat": 52.9137549,
      "lon": 8.4272685
    },
    {
      "type": "node",
      "id": 1420143820,
      "lat": 52.9138674,
      "lon": 8.4233711
    },
    {
      "type": "node",
      "id": 1420143821,
      "lat": 52.913868,
      "lon": 8.4234479
    },
    {
      "type": "node",
      "id": 1420143832,
      "lat": 52.9138701,
      "lon": 8.4237277
    },
    {
      "type": "node",
      "id": 1420143834,
      "lat": 52.9139362,
      "lon": 8.4233697
    },
    {
      "type": "node",
      "id": 1420143837,
      "lat": 52.9139388,
      "lon": 8.4237262
    },
    {
      "type": "node",
      "id": 1420143850,
      "lat": 52.9140267,
      "lon": 8.4232626
    },
    {
      "type": "node",
      "id": 1420143851,
      "lat": 52.9140278,
      "lon": 8.4234131
    },
    {
      "type": "node",
      "id": 1420143859,
      "lat": 52.9141211,
      "lon": 8.4232606
    },
    {
      "type": "node",
      "id": 1420143861,
      "lat": 52.9141235,
      "lon": 8.4235772
    },
    {
      "type": "node",
      "id": 1997335346,
      "lat": 52.9139252,
      "lon": 8.4234152
    },
    {
      "type": "node",
      "id": 1997335347,
      "lat": 52.9139265,
      "lon": 8.4235812
    },
    {
      "type": "node",
      "id": 1997335371,
      "lat": 52.9149054,
      "lon": 8.4260907
    },
    {
      "type": "node",
      "id": 1997335372,
      "lat": 52.9149087,
      "lon": 8.4265148
    },
    {
      "type": "node",
      "id": 1997335373,
      "lat": 52.9149214,
      "lon": 8.4264262
    },
    {
      "type": "node",
      "id": 1997335374,
      "lat": 52.9149772,
      "lon": 8.4265134
    },
    {
      "type": "node",
      "id": 1997335375,
      "lat": 52.9149921,
      "lon": 8.4260889
    },
    {
      "type": "node",
      "id": 1997335376,
      "lat": 52.9150473,
      "lon": 8.4263949
    },
    {
      "type": "node",
      "id": 12071184828,
      "lat": 52.9090063,
      "lon": 8.4395841
    },
    {
      "type": "node",
      "id": 12071184829,
      "lat": 52.9089605,
      "lon": 8.4396343
    },
    {
      "type": "node",
      "id": 12071184830,
      "lat": 52.9089519,
      "lon": 8.4396244
    },
    {
      "type": "node",
      "id": 12071184831,
      "lat": 52.9090048,
      "lon": 8.4396021
    },
    {
      "type": "node",
      "id": 12071184832,
      "lat": 52.9089998,
      "lon": 8.4396182
    },
    {
      "type": "node",
      "id": 12071184833,
      "lat": 52.9089919,
      "lon": 8.4396305
    },
    {
      "type": "node",
      "id": 12071184834,
      "lat": 52.9089819,
      "lon": 8.4396378
    },
    {
      "type": "node",
      "id": 12071184835,
      "lat": 52.908971,
      "lon": 8.4396391
    },
    {
      "type": "node",
      "id": 12071184836,
      "lat": 52.9089457,
      "lon": 8.4396106
    },
    {
      "type": "node",
      "id": 12071184837,
      "lat": 52.9089424,
      "lon": 8.4395942
    },
    {
      "type": "node",
      "id": 12071184838,
      "lat": 52.9089425,
      "lon": 8.4395769
    },
    {
      "type": "node",
      "id": 12071184839,
      "lat": 52.908946,
      "lon": 8.4395607
    },
    {
      "type": "node",
      "id": 12071184840,
      "lat": 52.9089524,
      "lon": 8.439547
    },
    {
      "type": "node",
      "id": 12071184841,
      "lat": 52.9089611,
      "lon": 8.4395375
    },
    {
      "type": "node",
      "id": 12071184842,
      "lat": 52.9089711,
      "lon": 8.4395331
    },
    {
      "type": "node",
      "id": 12071184843,
      "lat": 52.9089815,
      "lon": 8.4395343
    },
    {
      "type": "node",
      "id": 12071184844,
      "lat": 52.9089911,
      "lon": 8.4395409
    },
    {
      "type": "node",
      "id": 12071184845,
      "lat": 52.908999,
      "lon": 8.4395523
    },
    {
      "type": "node",
      "id": 12071184846,
      "lat": 52.9090042,
      "lon": 8.4395672
    },
    {
      "type": "node",
      "id": 8204841513,
      "lat": 52.8995784,
      "lon": 8.4435458
    },
    {
      "type": "node",
      "id": 8204841514,
      "lat": 52.8993018,
      "lon": 8.443287
    },
    {
      "type": "node",
      "id": 8204841515,
      "lat": 52.8995886,
      "lon": 8.4424258
    },
    {
      "type": "node",
      "id": 8204841516,
      "lat": 52.8998208,
      "lon": 8.4426324
    },
    {
      "type": "node",
      "id": 8210794055,
      "lat": 52.8997778,
      "lon": 8.442965
    },
    {
      "type": "node",
      "id": 8213751707,
      "lat": 52.8993267,
      "lon": 8.4432088
    },
    {
      "type": "node",
      "id": 8213751708,
      "lat": 52.8993011,
      "lon": 8.4432855
    },
    {
      "type": "node",
      "id": 8213751709,
      "lat": 52.8992872,
      "lon": 8.4431727
    },
    {
      "type": "node",
      "id": 8213751710,
      "lat": 52.8994086,
      "lon": 8.4428084
    },
    {
      "type": "node",
      "id": 8213751711,
      "lat": 52.8994487,
      "lon": 8.4428459
    },
    {
      "type": "node",
      "id": 12518183740,
      "lat": 52.8993751,
      "lon": 8.4429089
    },
    {
      "type": "node",
      "id": 541639704,
      "lat": 52.9012549,
      "lon": 8.4497944
    },
    {
      "type": "node",
      "id": 541639706,
      "lat": 52.9019288,
      "lon": 8.4498793
    },
    {
      "type": "node",
      "id": 1542679345,
      "lat": 52.9013561,
      "lon": 8.4484978
    },
    {
      "type": "node",
      "id": 1542679350,
      "lat": 52.9012742,
      "lon": 8.449242
    },
    {
      "type": "node",
      "id": 1542679353,
      "lat": 52.9015709,
      "lon": 8.4490571
    },
    {
      "type": "node",
      "id": 2430263255,
      "lat": 52.9011687,
      "lon": 8.4487007
    },
    {
      "type": "node",
      "id": 2430263256,
      "lat": 52.9010733,
      "lon": 8.4487322
    },
    {
      "type": "node",
      "id": 2430263257,
      "lat": 52.9011489,
      "lon": 8.4486504
    },
    {
      "type": "node",
      "id": 2498454739,
      "lat": 52.9036664,
      "lon": 8.4487305
    },
    {
      "type": "node",
      "id": 2498454842,
      "lat": 52.9035722,
      "lon": 8.4483661
    },
    {
      "type": "node",
      "id": 2498454854,
      "lat": 52.9037323,
      "lon": 8.448613
    },
    {
      "type": "node",
      "id": 2498455130,
      "lat": 52.9035062,
      "lon": 8.4484835
    },
    {
      "type": "node",
      "id": 5967694530,
      "lat": 52.9013221,
      "lon": 8.4501741
    },
    {
      "type": "node",
      "id": 8210772744,
      "lat": 52.9014111,
      "lon": 8.4490937
    },
    {
      "type": "node",
      "id": 8210772745,
      "lat": 52.9014265,
      "lon": 8.4491327
    },
    {
      "type": "node",
      "id": 8210772756,
      "lat": 52.9019135,
      "lon": 8.4497928
    },
    {
      "type": "node",
      "id": 8210772757,
      "lat": 52.9018887,
      "lon": 8.4498049
    },
    {
      "type": "node",
      "id": 8222801405,
      "lat": 52.9018293,
      "lon": 8.4494692
    },
    {
      "type": "node",
      "id": 8222801406,
      "lat": 52.9016187,
      "lon": 8.4495715
    },
    {
      "type": "node",
      "id": 8222801407,
      "lat": 52.9016262,
      "lon": 8.449614
    },
    {
      "type": "node",
      "id": 349322884,
      "lat": 52.933877,
      "lon": 8.400051
    },
    {
      "type": "node",
      "id": 1234603762,
      "lat": 52.9308485,
      "lon": 8.4010674
    },
    {
      "type": "node",
      "id": 1547362341,
      "lat": 52.9328165,
      "lon": 8.3997801
    },
    {
      "type": "node",
      "id": 2558566267,
      "lat": 52.9309141,
      "lon": 8.4004913
    },
    {
      "type": "node",
      "id": 2558566351,
      "lat": 52.930732,
      "lon": 8.3993239
    },
    {
      "type": "node",
      "id": 3190698765,
      "lat": 52.9308619,
      "lon": 8.4009621
    },
    {
      "type": "node",
      "id": 344366577,
      "lat": 52.9312954,
      "lon": 8.4045919
    },
    {
      "type": "node",
      "id": 344366578,
      "lat": 52.9323217,
      "lon": 8.4043857
    },
    {
      "type": "node",
      "id": 344366579,
      "lat": 52.9327615,
      "lon": 8.4045144
    },
    {
      "type": "node",
      "id": 344366580,
      "lat": 52.9335715,
      "lon": 8.4051984
    },
    {
      "type": "node",
      "id": 2558566277,
      "lat": 52.9311663,
      "lon": 8.4039138
    },
    {
      "type": "node",
      "id": 2558566281,
      "lat": 52.9308362,
      "lon": 8.4034671
    },
    {
      "type": "node",
      "id": 2558566318,
      "lat": 52.9313166,
      "lon": 8.4044704
    },
    {
      "type": "node",
      "id": 2558566319,
      "lat": 52.9309787,
      "lon": 8.4034096
    },
    {
      "type": "node",
      "id": 2558566347,
      "lat": 52.930623,
      "lon": 8.4028409
    },
    {
      "type": "node",
      "id": 2570067558,
      "lat": 52.933717,
      "lon": 8.4032294
    },
    {
      "type": "node",
      "id": 3190698766,
      "lat": 52.9310669,
      "lon": 8.4035568
    },
    {
      "type": "node",
      "id": 7124341078,
      "lat": 52.9340015,
      "lon": 8.4036773
    },
    {
      "type": "node",
      "id": 7124341079,
      "lat": 52.9327825,
      "lon": 8.4051016
    },
    {
      "type": "node",
      "id": 7124341080,
      "lat": 52.9343819,
      "lon": 8.4041386
    },
    {
      "type": "node",
      "id": 7124341081,
      "lat": 52.9343863,
      "lon": 8.4040153
    },
    {
      "type": "node",
      "id": 7124341082,
      "lat": 52.9342206,
      "lon": 8.4038631
    },
    {
      "type": "node",
      "id": 7124341084,
      "lat": 52.9340181,
      "lon": 8.4038269
    },
    {
      "type": "node",
      "id": 7124420385,
      "lat": 52.9338948,
      "lon": 8.4048461
    },
    {
      "type": "node",
      "id": 7124420386,
      "lat": 52.9336831,
      "lon": 8.4036786
    },
    {
      "type": "node",
      "id": 7124420387,
      "lat": 52.9338013,
      "lon": 8.4037214
    },
    {
      "type": "node",
      "id": 7124420388,
      "lat": 52.9342375,
      "lon": 8.4037337
    },
    {
      "type": "node",
      "id": 7124420390,
      "lat": 52.9338334,
      "lon": 8.4020948
    },
    {
      "type": "node",
      "id": 8244555986,
      "lat": 52.931384,
      "lon": 8.4045741
    },
    {
      "type": "node",
      "id": 1420144920,
      "lat": 52.9384287,
      "lon": 8.4206333
    },
    {
      "type": "node",
      "id": 1420144931,
      "lat": 52.9384753,
      "lon": 8.4204746
    },
    {
      "type": "node",
      "id": 1420144935,
      "lat": 52.9385055,
      "lon": 8.4209186
    },
    {
      "type": "node",
      "id": 1420144939,
      "lat": 52.9385032,
      "lon": 8.4205781
    },
    {
      "type": "node",
      "id": 1420144946,
      "lat": 52.9385757,
      "lon": 8.4202946
    },
    {
      "type": "node",
      "id": 1420144947,
      "lat": 52.9385736,
      "lon": 8.4204017
    },
    {
      "type": "node",
      "id": 1420144950,
      "lat": 52.9386009,
      "lon": 8.4205032
    },
    {
      "type": "node",
      "id": 1420144954,
      "lat": 52.9386268,
      "lon": 8.420484
    },
    {
      "type": "node",
      "id": 1420144956,
      "lat": 52.9386462,
      "lon": 8.4205071
    },
    {
      "type": "node",
      "id": 1420144960,
      "lat": 52.938647,
      "lon": 8.4202417
    },
    {
      "type": "node",
      "id": 1420144965,
      "lat": 52.9387151,
      "lon": 8.4207632
    },
    {
      "type": "node",
      "id": 1420144966,
      "lat": 52.9387064,
      "lon": 8.4204624
    },
    {
      "type": "node",
      "id": 2483289883,
      "lat": 52.9384683,
      "lon": 8.4207802
    },
    {
      "type": "node",
      "id": 2483289886,
      "lat": 52.9384935,
      "lon": 8.4208739
    },
    {
      "type": "node",
      "id": 581959131,
      "lat": 52.9073014,
      "lon": 8.5823544
    },
    {
      "type": "node",
      "id": 581959132,
      "lat": 52.907178,
      "lon": 8.5820308
    },
    {
      "type": "node",
      "id": 1620363667,
      "lat": 52.906658,
      "lon": 8.5824918
    },
    {
      "type": "node",
      "id": 1620363727,
      "lat": 52.9067032,
      "lon": 8.5824445
    },
    {
      "type": "node",
      "id": 1620363765,
      "lat": 52.9067261,
      "lon": 8.5825045
    },
    {
      "type": "node",
      "id": 1620363858,
      "lat": 52.9067793,
      "lon": 8.5828099
    },
    {
      "type": "node",
      "id": 1620363954,
      "lat": 52.9068241,
      "lon": 8.582763
    },
    {
      "type": "node",
      "id": 1620364009,
      "lat": 52.9068646,
      "lon": 8.5828694
    },
    {
      "type": "node",
      "id": 1620364074,
      "lat": 52.9069109,
      "lon": 8.5828209
    },
    {
      "type": "node",
      "id": 1620364087,
      "lat": 52.9069155,
      "lon": 8.5828329
    },
    {
      "type": "node",
      "id": 1620364402,
      "lat": 52.9072421,
      "lon": 8.5824165
    },
    {
      "type": "node",
      "id": 1620364423,
      "lat": 52.9072623,
      "lon": 8.5824694
    },
    {
      "type": "node",
      "id": 1922410950,
      "lat": 52.9101324,
      "lon": 8.5909736
    },
    {
      "type": "node",
      "id": 1922410961,
      "lat": 52.9102076,
      "lon": 8.5907596
    },
    {
      "type": "node",
      "id": 1922410965,
      "lat": 52.9099762,
      "lon": 8.5910731
    },
    {
      "type": "node",
      "id": 1922410973,
      "lat": 52.9102071,
      "lon": 8.5904354
    },
    {
      "type": "node",
      "id": 1922410979,
      "lat": 52.9100594,
      "lon": 8.5909739
    },
    {
      "type": "node",
      "id": 1922410985,
      "lat": 52.9100595,
      "lon": 8.5910727
    },
    {
      "type": "node",
      "id": 1922410988,
      "lat": 52.9101321,
      "lon": 8.59076
    },
    {
      "type": "node",
      "id": 1922410991,
      "lat": 52.9100347,
      "lon": 8.5904361
    },
    {
      "type": "node",
      "id": 1922410997,
      "lat": 52.9099757,
      "lon": 8.5907233
    },
    {
      "type": "node",
      "id": 1923923783,
      "lat": 52.9100352,
      "lon": 8.590723
    },
    {
      "type": "node",
      "id": 1465196469,
      "lat": 52.9094463,
      "lon": 8.5982128
    },
    {
      "type": "node",
      "id": 1465196477,
      "lat": 52.9094727,
      "lon": 8.5983209
    },
    {
      "type": "node",
      "id": 1465196478,
      "lat": 52.9094843,
      "lon": 8.5981291
    },
    {
      "type": "node",
      "id": 1465196479,
      "lat": 52.9094965,
      "lon": 8.5981791
    },
    {
      "type": "node",
      "id": 1465196480,
      "lat": 52.9095227,
      "lon": 8.5982874
    },
    {
      "type": "node",
      "id": 1465196485,
      "lat": 52.9096977,
      "lon": 8.5979859
    },
    {
      "type": "node",
      "id": 1946762724,
      "lat": 52.9083677,
      "lon": 8.5929586
    },
    {
      "type": "node",
      "id": 1946762728,
      "lat": 52.9083816,
      "lon": 8.593003
    },
    {
      "type": "node",
      "id": 1946762730,
      "lat": 52.9084103,
      "lon": 8.5930181
    },
    {
      "type": "node",
      "id": 1946762732,
      "lat": 52.9083768,
      "lon": 8.5929109
    },
    {
      "type": "node",
      "id": 1946762734,
      "lat": 52.9084462,
      "lon": 8.5929473
    },
    {
      "type": "node",
      "id": 1946762735,
      "lat": 52.9084035,
      "lon": 8.5928879
    },
    {
      "type": "node",
      "id": 1946762737,
      "lat": 52.9084323,
      "lon": 8.5929029
    },
    {
      "type": "node",
      "id": 1946762738,
      "lat": 52.9084371,
      "lon": 8.592995
    },
    {
      "type": "node",
      "id": 7165083245,
      "lat": 52.9094935,
      "lon": 8.5981229
    },
    {
      "type": "node",
      "id": 7165083251,
      "lat": 52.909593,
      "lon": 8.5980561
    },
    {
      "type": "node",
      "id": 1465196483,
      "lat": 52.9096733,
      "lon": 8.5989044
    },
    {
      "type": "node",
      "id": 1465196486,
      "lat": 52.9097263,
      "lon": 8.5988102
    },
    {
      "type": "node",
      "id": 1465196490,
      "lat": 52.9097386,
      "lon": 8.5988606
    },
    {
      "type": "node",
      "id": 1465196492,
      "lat": 52.9098013,
      "lon": 8.5984104
    },
    {
      "type": "node",
      "id": 1465196495,
      "lat": 52.9098415,
      "lon": 8.5983834
    },
    {
      "type": "node",
      "id": 1465196497,
      "lat": 52.9098582,
      "lon": 8.5986427
    },
    {
      "type": "node",
      "id": 1465196499,
      "lat": 52.9098748,
      "lon": 8.5987106
    },
    {
      "type": "node",
      "id": 1465196501,
      "lat": 52.9098983,
      "lon": 8.5986158
    },
    {
      "type": "node",
      "id": 7165083241,
      "lat": 52.9096861,
      "lon": 8.5988958
    },
    {
      "type": "node",
      "id": 7165083244,
      "lat": 52.9097703,
      "lon": 8.5987807
    },
    {
      "type": "node",
      "id": 582280303,
      "lat": 52.9105895,
      "lon": 8.5990938
    },
    {
      "type": "node",
      "id": 1170264485,
      "lat": 52.9105669,
      "lon": 8.5990935
    },
    {
      "type": "node",
      "id": 1170264685,
      "lat": 52.91071,
      "lon": 8.5993252
    },
    {
      "type": "node",
      "id": 1170264774,
      "lat": 52.9105669,
      "lon": 8.5993229
    },
    {
      "type": "node",
      "id": 1465196566,
      "lat": 52.9105505,
      "lon": 8.5992583
    },
    {
      "type": "node",
      "id": 1465196567,
      "lat": 52.9105511,
      "lon": 8.5991533
    },
    {
      "type": "node",
      "id": 1465196570,
      "lat": 52.9105665,
      "lon": 8.5991536
    },
    {
      "type": "node",
      "id": 1465196573,
      "lat": 52.9105673,
      "lon": 8.5992586
    },
    {
      "type": "node",
      "id": 1465196591,
      "lat": 52.9107028,
      "lon": 8.5990971
    },
    {
      "type": "node",
      "id": 1465196593,
      "lat": 52.9107113,
      "lon": 8.5990972
    },
    {
      "type": "node",
      "id": 4665246031,
      "lat": 52.9105912,
      "lon": 8.5990449
    },
    {
      "type": "node",
      "id": 4665246032,
      "lat": 52.9107033,
      "lon": 8.5990462
    },
    {
      "type": "node",
      "id": 1314531970,
      "lat": 52.9242503,
      "lon": 8.6275295
    },
    {
      "type": "node",
      "id": 1314532017,
      "lat": 52.9240319,
      "lon": 8.6275035
    },
    {
      "type": "node",
      "id": 1314532030,
      "lat": 52.9242885,
      "lon": 8.6273294
    },
    {
      "type": "node",
      "id": 1314532046,
      "lat": 52.9240445,
      "lon": 8.6265238
    },
    {
      "type": "node",
      "id": 4641857092,
      "lat": 52.9241434,
      "lon": 8.6272589
    },
    {
      "type": "node",
      "id": 4641857093,
      "lat": 52.9242697,
      "lon": 8.6272739
    },
    {
      "type": "node",
      "id": 4641857096,
      "lat": 52.9242522,
      "lon": 8.6274841
    },
    {
      "type": "node",
      "id": 4641857097,
      "lat": 52.9242817,
      "lon": 8.6274876
    },
    {
      "type": "node",
      "id": 4641857113,
      "lat": 52.9240946,
      "lon": 8.6265298
    },
    {
      "type": "node",
      "id": 4641857114,
      "lat": 52.9240782,
      "lon": 8.6269103
    },
    {
      "type": "node",
      "id": 4641857115,
      "lat": 52.9239453,
      "lon": 8.6271115
    },
    {
      "type": "node",
      "id": 4641857116,
      "lat": 52.9240187,
      "lon": 8.6271203
    },
    {
      "type": "node",
      "id": 4641857117,
      "lat": 52.9239369,
      "lon": 8.6273045
    },
    {
      "type": "node",
      "id": 4641857118,
      "lat": 52.92404,
      "lon": 8.6273168
    },
    {
      "type": "node",
      "id": 4641857119,
      "lat": 52.9241581,
      "lon": 8.6269198
    },
    {
      "type": "node",
      "id": 4641857120,
      "lat": 52.9242674,
      "lon": 8.6273269
    }
  ]
}